,Name,City,Country,Arena,Capactity,Logo URL,Division,City,State,,,,,,,,,,,,,,,,,,,,
Team,Hawks,Atlanta,USA,State Farm Arena,18118,https://raw.githubusercontent.com/timaboderin/NBA_Logos/master/atlanta.png,Southeast,Atlanta,Georgia,,,,,,,,,,,,,,,,,,,,
Team,Celtics,Boston,USA,TD Garden,18624,https://raw.githubusercontent.com/timaboderin/NBA_Logos/master/boston.png,Atlantic,Boston,Massachusetts,,,,,,,,,,,,,,,,,,,,
Team,Nets,Brooklyn,USA,Barclays Center,17732,https://raw.githubusercontent.com/timaboderin/NBA_Logos/master/brooklyn.png,Atlantic,Brooklyn,New York,,,,,,,,,,,,,,,,,,,,
Team,Hornets,Charlotte,USA,Spectrum Center,19077,https://raw.githubusercontent.com/timaboderin/NBA_Logos/master/charlotte.png,Southeast,Charlotte,North Carolina,,,,,,,,,,,,,,,,,,,,
Team,Bulls,Chicago,USA,United Center,20917,https://raw.githubusercontent.com/timaboderin/NBA_Logos/master/chicago.png,Central,Chicago,Illinois,,,,,,,,,,,,,,,,,,,,
Team,Cavaliers,Cleveland,USA,Quicken Loans Arena,20562,https://raw.githubusercontent.com/timaboderin/NBA_Logos/master/cleveland.png,Central,Cleveland,Ohio,,,,,,,,,,,,,,,,,,,,
Team,Mavericks,Dallas,USA,American Airlines Center,19200,https://raw.githubusercontent.com/timaboderin/NBA_Logos/master/dallas.png,Southwest,Dallas,Texas,,,,,,,,,,,,,,,,,,,,
Team,Nuggets,Denver,USA,Pepsi Center,19520,https://raw.githubusercontent.com/timaboderin/NBA_Logos/master/denver.png,Northwest,Denver,Colorado,,,,,,,,,,,,,,,,,,,,
Team,Pistons,Detroit,USA,Little Caesars Arena,20491,https://raw.githubusercontent.com/timaboderin/NBA_Logos/master/detroit.png,Central,Detroit,Michigan,,,,,,,,,,,,,,,,,,,,
Team,Warriors,Golden State,USA,Oracle Arena,19596,https://raw.githubusercontent.com/timaboderin/NBA_Logos/master/golden_state.png,Pacific,Oakland,California,,,,,,,,,,,,,,,,,,,,
Team,Rockets,Houston,USA,Toyota Center,18055,https://raw.githubusercontent.com/timaboderin/NBA_Logos/master/houston.png,Southwest,Houston,Texas,,,,,,,,,,,,,,,,,,,,
Team,Pacers,Indiana,USA,Bankers Life Fieldhouse,17923,https://raw.githubusercontent.com/timaboderin/NBA_Logos/master/indiana.png,Central,Indianapolis,Indiana,,,,,,,,,,,,,,,,,,,,
Team,Clippers,Los Angeles,USA,Staples Center,19060,https://raw.githubusercontent.com/timaboderin/NBA_Logos/master/la_clippers.png,Pacific,Los Angeles,California,,,,,,,,,,,,,,,,,,,,
Team,Lakers,Los Angeles,USA,Staples Center,18997,https://raw.githubusercontent.com/timaboderin/NBA_Logos/master/la_lakers.png,Pacific,Los Angeles,California,,,,,,,,,,,,,,,,,,,,
Team,Grizzlies,Memphis,USA,FedExForum,17794,https://raw.githubusercontent.com/timaboderin/NBA_Logos/master/memphis.png,Southwest,Memphis,Tennessee,,,,,,,,,,,,,,,,,,,,
Team,Heat,Miami,USA,American Airlines Arena,19600,https://raw.githubusercontent.com/timaboderin/NBA_Logos/master/miami.png,Southeast,Miami,Florida,,,,,,,,,,,,,,,,,,,,
Team,Bucks,Milwaukee,USA,Fisery Forum,17500,https://raw.githubusercontent.com/timaboderin/NBA_Logos/master/milwaukee.png,Central,Milwaukee,Wisconsin,,,,,,,,,,,,,,,,,,,,
Team,Timberwolves,Minnesota,USA,Target Center,18978,https://raw.githubusercontent.com/timaboderin/NBA_Logos/master/minnesota.png,Northwest,Minneapolis,Minnesota,,,,,,,,,,,,,,,,,,,,
Team,Pelicans,New Orleans,USA,Smoothie King Center,16867,https://raw.githubusercontent.com/timaboderin/NBA_Logos/master/new_orleans.png,Southwest,New Orleans,Louisiana,,,,,,,,,,,,,,,,,,,,
Team,Knicks,New York,USA,Madison Square Garden,19812,https://raw.githubusercontent.com/timaboderin/NBA_Logos/master/new_york.png,Atlantic,New York City,New York,,,,,,,,,,,,,,,,,,,,
Team,Thunder,Oklahoma City,USA,Chesapeake Energy Arena,18203,https://raw.githubusercontent.com/timaboderin/NBA_Logos/master/oklahoma_city.png,Northwest,Oklahoma City,Oklahoma,,,,,,,,,,,,,,,,,,,,
Team,Magic,Orlando,USA,Amway Center,18846,https://raw.githubusercontent.com/timaboderin/NBA_Logos/master/orlando.png,Southeast,Orlando,Florida,,,,,,,,,,,,,,,,,,,,
Team,76ers,Philadelphia,USA,Wells Fargo Center,20478,https://raw.githubusercontent.com/timaboderin/NBA_Logos/master/philadelphia.png,Atlantic,Philadelphia,Pennsylvania,,,,,,,,,,,,,,,,,,,,
Team,Suns,Phoenix,USA,Talking Stick Resort Arena,18055,https://raw.githubusercontent.com/timaboderin/NBA_Logos/master/phoenix.png,Pacific,Phoenix,Arizona,,,,,,,,,,,,,,,,,,,,
Team,Trail Blazers,Portland,USA,Moda Center,19441,https://raw.githubusercontent.com/timaboderin/NBA_Logos/master/portland.png,Northwest,Portland,Oregon,,,,,,,,,,,,,,,,,,,,
Team,Kings,Sacramento,USA,Golden 1 Center,17583,https://raw.githubusercontent.com/timaboderin/NBA_Logos/master/sacramento.png,Pacific,Sacramento,California,,,,,,,,,,,,,,,,,,,,
Team,Spurs,San Antonio,USA,AT&T Center,18418,https://raw.githubusercontent.com/timaboderin/NBA_Logos/master/san_antonio.png,Southwest,San Antonio,Texas,,,,,,,,,,,,,,,,,,,,
Team,Raptors,Toronto,Canada,Scotiabank Arena,19800,https://raw.githubusercontent.com/timaboderin/NBA_Logos/master/toronto.png,Atlantic,Toronto,Ontario,,,,,,,,,,,,,,,,,,,,
Team,Jazz,Utah,USA,Vivint Smart Home Arena,18306,https://raw.githubusercontent.com/timaboderin/NBA_Logos/master/utah.png,Northwest,Salt Lake City,Utah,,,,,,,,,,,,,,,,,,,,
Team,Wizards,Washington,USA,Capital One Arena,20356,https://raw.githubusercontent.com/timaboderin/NBA_Logos/master/washington.png,Southeast,Washington,D.C,,,,,,,,,,,,,,,,,,,,
NewFranchiseLogo,,,,,,https://raw.githubusercontent.com/timaboderin/NBA_Logos/master/new_team.png,,,,,,,,,,,,,,,,,,,,,,,
,,,,,,,,,,,,,,,,,,,,,,,,,,,,,
Type,FirstName,Last Name,Position,Age,Height,Weight,Team ID,Defence,TurnOvers,FTA,FTPerc,2PTA,2PTPerc,3PTA,ThreePerc,OffReb,Fame,DefReb,FastBreak,Assists,Personality,Potential,Steals,Blocks,Stamina,Trait,,,
,,,,,,,,,,,,,,,,,,,,,,,,,,,,,
// Atlanta Hawks,,,,,,,,,,,,,,,,,,,,,,,,,,,,,
,,,,,,,,,,,,,,,,,,,,,,,,,,,,,
players,DeAndre',Bembry,SG,25,195.58,210,0,53,1.6,1.5,0.486,4.5,0.571,1.5,0.237,1,25,3.3,26,2.5,80,21.5,1.4,0.5,73.2,,,,
players,Charlie,Brown,SG,22,198.12,199,-1,35,0,1,1,0.5,0,0.3,1,0.5,0,0.3,12.5,0,80,21.59090909,0,0.3,12,R,,,
players,Vince,Carter,SF,43,198.12,220,0,41,0.7,0.5,0.7,1.9,0.526,4,0.291,0.2,0,1.8,8,0.9,80,3.546511628,0.4,0.3,47.1,HF,,,
players,John,Collins,PF,22,205.74,235,0,59,1.4,3.4,0.706,8.4,0.548,3.8,0.474,2,25,6.8,26,1.6,80,24.09090909,1,2,96.6,PT,,,
players,Allen,Crabbe,SG,27,195.58,212,0,41,0.4,0.7,0.778,1.9,0.56,3.4,0.318,0.4,0,2,12.5,1,80,15.09259259,0.6,0.2,58.8,,,,
players,Bruno,Fernando,C,21,205.74,240,0,44,0.9,1,0.64,2.4,0.607,0.6,0.25,1.1,0,1.8,11,1.1,80,22.61904762,0.2,0.4,35.4,R,,,
players,Brandon,Goodwin,PG,24,182.88,180,-1,20,1,0,0.6,0,0.45,0.5,0,0,0,0,5,0,80,19.79166667,0,0,7.5,,,,
players,Kevin,Huerter,SG,21,200.66,190,0,44,1.4,1.2,0.824,2.5,0.486,4.6,0.369,0.5,0,2.4,17,3.4,80,22.61904762,0.7,0.4,67.5,,,,
players,De'Andre,Hunter,SF,22,200.66,225,0,38,1.6,2.3,0.764,6,0.434,5,0.367,0.5,0,3.5,24.5,1.9,80,9.090909091,0.6,0.3,94.5,R,,,
players,Damian,Jones,C,24,210.82,245,0,47,0.7,1.9,0.667,4.2,0.72,0.2,0.4,1.6,30,2.4,9.5,0.7,80,29.79166667,0.5,0.9,55.8,,,,
players,Alex,Len,C,26,213.36,250,0,53,0.9,2,0.681,4.8,0.614,1.3,0.233,1.5,25,3.2,12.5,1,80,23.26923077,0.5,0.8,51.6,,,,
players,Jabari,Parker,PF,24,203.2,245,0,56,1.9,2.5,0.714,9.4,0.59,3.7,0.28,1.8,30,4.6,39.5,1.8,80,27.29166667,1.4,0.6,83.4,,,,
players,Chandler,Parsons,SF,31,205.74,230,0,59,0.5,0,0.7,0.5,0.5,3,0.333,0.3,0,1.3,5,0.5,80,15.32258065,1,0,32.4,,,,
players,Cam,Reddish,SG,20,203.2,218,0,44,1.8,2,0.733,5,0.378,4,0.27,0.7,0,3.2,20,1.5,80,6.25,0.9,0.4,74.7,R,,,
players,Evan,Turner,PG,31,198.12,220,0,50,1.5,0.9,0.857,3.6,0.426,0.3,0,0.5,0,1.7,17,2.2,80,10.32258065,0.5,0.5,41.7,,,,
players,Ty,Wallace,SG,25,195.58,198,-1,47,0.7,1.2,0.647,2.1,0.448,1.1,0.067,0.2,0,1.4,14,0.9,80,14,0.5,0.1,34.2,,,,
players,Trae,Young,PG,21,185.42,180,0,41,5,7.3,0.858,11.3,0.515,8.9,0.376,0.5,60,3.6,47,8.6,80,52.61904762,1.3,0,104.4,EX,,,
,,,,,,,,,,,,,,,,,,,,,,,,,,,,,
,,,,,,,,,,,,,,,,,,,,,,,,,,,,,
// Boston Celtics,,,,,,,,,,,,,,,,,,,,,,,,,,,,,
,,,,,,,,,,,,,,,,,,,,,,,,,,,,,
players,Jaylen,Brown,SF,23,198.12,223,1,80,1.8,3.9,0.727,9.7,0.575,5.3,0.377,1,35,6,63.5,2.3,80,38.15217391,1.1,0.4,100.2,SP,,,
players,Carsen,Edwards,SG,21,180.34,200,1,74,0.6,0.6,0.846,1.6,0.303,2.4,0.333,0.2,0,1.5,8,0.8,80,20.11904762,0.3,0.1,33.6,R,,,
players,Tacko,Falls,C,24,226.06,311,1,125,1,0,0.4,4,0.5,0,0,0,0,3,5,0,80,19.79166667,0,0,12,R,,,
players,Javonte,Green,SF,26,193.04,205,1,77,0.2,0.3,0.4,1.5,0.72,0.6,0.3,0.2,0,0.8,15.5,0.2,80,18.26923077,0.2,0.2,20.4,R,,,
players,Gordon,Hayward,SF,29,200.66,225,1,77,1.9,2.1,0.81,9.4,0.628,3.4,0.382,0.7,30,5.6,44,4,80,26.37931034,0.7,0.2,90,PT,,,
players,Enes,Kanter,C,27,208.28,250,1,86,0.8,2.3,0.649,4.8,0.584,0.1,0,2.5,30,3.3,12.5,1.1,80,27.59259259,0.6,0.5,47.4,IH,,,
players,Romeo,Langford,SG,20,193.04,216,1,68,0,0,0.6,0,0.425,0,0.25,0,0,0,5,0,80,23.75,0,0,0,R,,,
players,Semi,Ojeleye,PF,25,198.12,240,1,71,0.2,0.4,0.7,0.9,0.5,1.4,0.364,0.3,25,1.5,8,0.4,80,21.5,0.4,0,45.6,,,,
players,Vincent,Poirier,C,26,213.36,235,1,89,0.3,0.2,0.5,1.6,0.5,0,0,0.9,0,0.8,8,0.3,80,18.26923077,0.2,0.2,14.7,R,,,
players,Marcus,Smart,SG,25,190.5,220,1,74,1.3,1.7,0.879,4.3,0.465,6.3,0.333,1,35,2.4,27.5,4.6,80,34,1.3,0.5,95.4,PT,,,
players,Jayson,Tatum,PF,21,203.2,210,1,86,2.3,4.1,0.832,11.3,0.441,6.8,0.363,1.2,35,6,50,2.8,80,35.11904762,1.5,0.7,102.6,EX,,,
players,Daniel,Theis,C,27,203.2,245,1,92,0.9,1.6,0.677,4.4,0.568,1,0.316,1.6,35,4.8,9.5,1.3,80,30.09259259,0.5,1.6,65.4,,,,
players,Kemba,Walker,PG,29,182.88,184,1,74,2.2,4.5,0.898,8.4,0.457,9.1,0.408,1,65,3.4,36.5,5.2,80,48.87931034,1,0.5,96.3,CG,,,
players,Brad,Wanamaker,PG,30,190.5,210,1,74,1.3,2.4,0.873,3.9,0.489,1.3,0.4,0.5,25,1.7,30.5,2.8,80,20.83333333,0.7,0.3,54,,,,
players,Tremont,Waters,PG,22,177.8,175,1,95,2,2,1,2,0.5,5,0.2,0,0,2,5,3,80,21.59090909,1,2,60,R,,,
players,Grant,Williams,PF,21,198.12,236,1,77,0.8,0.8,0.824,1.5,0.412,1.2,0.038,0.7,0,1.5,6.5,0.8,80,20.11904762,0.4,0.5,42,R,,,
players,Robert,Williams,C,22,203.2,237,1,107,0.8,0.7,0.571,2.6,0.673,0,0,1.2,35,3.4,8,1.1,80,36.59090909,0.9,1.1,42.6,,,,
,,,,,,,,,,,,,,,,,,,,,,,,,,,,,
,,,,,,,,,,,,,,,,,,,,,,,,,,,,,
// Brooklyn Nets,,,,,,,,,,,,,,,,,,,,,,,,,,,,,
,,,,,,,,,,,,,,,,,,,,,,,,,,,,,
players,Jarrett,Allen,C,21,210.82,243,2,77,1.2,4.6,0.604,7.4,0.672,0,0,3.8,35,6.8,15.5,1.2,80,45.11904762,0.8,1.3,79.5,PT,,,
players,Nicolas,Claxton,PF,20,210.82,215,2,56,0.7,1.3,0.417,1.8,0.688,0.6,0,0.9,0,1.6,9.5,1.2,80,23.75,0.1,0.6,39.6,R,,,
players,Spencer,Dinwiddie,PG,26,195.58,215,2,56,2.7,6.2,0.839,9.8,0.506,6.1,0.306,0.2,30,2.8,50,6.2,80,28.26923077,0.9,0.5,89.4,EX,,,
players,Kevin,Durant,PF,31,208.28,240,2,74,2.7,6.2,0.883,12.1,0.586,5.4,0.384,0.5,0,6.6,42.5,5.4,80,15.32258065,0.8,1.5,102.3,HF,,,
players,Henry,Ellenson,PF,23,208.28,240,2,35,0,0,0.6,0,0.55,0,0.215,0,0,0,5,0,80,20.65217391,0,0,9,,,,
players,Joe,Harris,SF,28,198.12,220,2,53,1.4,1.1,0.815,5,0.529,6.4,0.438,0.9,30,3,36.5,2.1,80,26.96428571,0.7,0.3,94.5,,,,
players,Kyrie,Irving,PG,27,187.96,195,2,62,2.4,5.7,0.937,14.6,0.503,8.3,0.341,0.9,35,4.5,44,7.2,80,37.59259259,1.1,0.5,101.4,CG,,,
players,DeAndre,Jordan,C,31,210.82,265,2,80,1,2.2,0.696,4.8,0.693,0,0,2.4,35,7,5,2,80,32.82258065,0.4,1,64.2,SP,,,
players,Rodions,Kurucs,PF,21,205.74,228,2,68,1.2,0.6,0.333,1.6,0.375,0.7,0.429,0.5,0,1.7,9.5,0.1,80,17.61904762,0.5,0,29.7,,,,
players,Caris,LeVert,SG,25,198.12,205,2,53,3.4,3.4,0.645,11.6,0.442,4,0.361,1.1,0,3.9,54.5,4,80,11.5,0.7,0.1,94.8,PT,,,
players,Timothe,Luwawu-Cabarrot,SG,24,200.66,220,2,35,0,1,0.5,0.5,0,0.5,0,0,0,0,5,0,80,19.79166667,0,0,9,,,,
players,Dzanan,Musa,SF,20,205.74,217,2,59,1.2,1.6,0.742,2.4,0.457,2.5,0.191,0.5,0,2.1,14,1.3,80,16.25,0.5,0.1,46.5,,,,
players,David,Nwaba,SF,27,195.58,219,2,65,0.4,1.3,0.6,1.9,0.581,1.1,0.444,0.4,0,1.7,18.5,0.3,80,17.59259259,0.4,0.6,37.8,,,,
players,Theo,Pinson,SG,24,195.58,212,2,59,1.5,0.8,0.917,3.5,0.365,3.1,0.217,0.5,0,1.7,8,2.3,80,12.29166667,0.5,0.1,44.7,,,,
players,Taurean,Prince,PF,25,200.66,218,2,62,2.1,1.4,0.727,5,0.405,6.8,0.393,0.8,0,5.3,24.5,2.3,80,19,0.9,0.4,91.8,,,,
players,Garrett,Temple,SG,33,195.58,195,2,59,1.1,1,0.76,2.7,0.554,6.1,0.356,0.5,30,2.6,23,2.4,80,21.89393939,1,0.5,83.7,,,,
,,,,,,,,,,,,,,,,,,,,,,,,,,,,,
,,,,,,,,,,,,,,,,,,,,,,,,,,,,,
// Charlotte Hornets,,,,,,,,,,,,,,,,,,,,,,,,,,,,,
,,,,,,,,,,,,,,,,,,,,,,,,,,,,,
players,Dwayne,Bacon,SG,24,198.12,221,3,50,1,1.6,0.71,5.7,0.345,2.2,0.233,0.5,0,2.2,24.5,1.3,80,2.291666667,0.8,0.1,57.3,,,,
players,Nicolas,Batum,SF,31,205.74,230,3,53,1.4,0.4,1,0.9,0.538,2.4,0.273,1.1,25,3.1,5,3.1,80,17.82258065,0.8,0.5,65.7,IH,,,
players,Bismack,Biyombo,C,27,203.2,255,3,53,0.6,3,0.587,5.1,0.57,0,0,1.8,25,3,12.5,0.8,80,20.09259259,0.2,0.7,51.6,,,,
players,Miles,Bridges,SF,21,198.12,225,3,44,1.6,1.7,0.739,6.9,0.47,4.4,0.392,1.3,0,3.9,30.5,1.8,80,20.11904762,0.5,0.8,93,SP,,,
players,Devonte',Graham,PG,24,185.42,195,3,38,3,4.1,0.809,6.6,0.397,8.9,0.429,1.1,35,2.6,44,7.6,80,39.79166667,0.7,0.2,101.4,EX,,,
players,Willy,Hernangomez,C,25,210.82,250,3,56,0.6,1,0.5,2,0.438,0.8,0.333,1.1,0,1.5,5,0.3,80,16.5,0.1,0.4,22.5,,,,
players,Michael,Kidd-Gilchrist,SF,26,198.12,232,3,44,0.6,1,0.8,4.2,0.381,2.2,0.273,1.2,0,2.6,5,1,80,15.76923077,0,0.4,45.6,,,,
players,Caleb,Martin,SF,24,195.58,205,3,62,0.8,0.8,0.333,1.8,0.429,0.8,0,0.3,0,1,12.5,0.8,80,17.29166667,0.3,0.5,21,R,,,
players,Cody,Martin,SF,24,195.58,205,3,59,0.5,1.3,0.696,1.6,0.552,1.2,0.095,0.5,0,1.7,18.5,1.2,80,19.79166667,0.7,0.1,36,R,,,
players,Jalen,McDaniels,PF,22,208.28,205,3,23,0,0,0.6,2,0.5,0,0.25,1,0,0,5,0,80,21.59090909,0,0,9,R,,,
players,Malik,Monk,SG,21,190.5,200,3,44,1.4,1.4,0.833,4.2,0.587,3.8,0.273,0.3,0,2.3,24.5,2.2,80,15.11904762,0.4,0.2,61.2,SP,,,
players,Terry,Rozier III,SG,25,185.42,190,3,47,2.7,2.9,0.87,7.7,0.45,6.6,0.401,0.8,25,3.9,38,4.3,80,24,1.1,0.1,99,,,,
players,P.J.,Washington Jr.,PF,21,200.66,230,3,53,1.3,2.6,0.71,5.7,0.532,3.4,0.419,0.9,30,4.1,29,1.7,80,32.61904762,1,0.9,87.3,R,,,
players,Marvin,Williams,PF,33,203.2,237,3,50,0.7,1.3,0.9,2.2,0.635,3.1,0.4,0.4,25,2.4,9.5,1,80,19.39393939,0.7,0.4,60.9,,,,
players,Cody,Zeller,C,27,213.36,240,3,56,1.6,2.5,0.678,6.6,0.597,1.8,0.333,2.8,25,4.8,17,1.2,80,20.09259259,0.6,0.5,69.9,,,,
,,,,,,,,,,,,,,,,,,,,,,,,,,,,,
,,,,,,,,,,,,,,,,,,,,,,,,,,,,,
// Chicago Bulls,,,,,,,,,,,,,,,,,,,,,,,,,,,,,
,,,,,,,,,,,,,,,,,,,,,,,,,,,,,
players,Ryan,Arcidiacono,PG,25,190.5,195,4,62,0.7,0.8,0.75,1.3,0.303,2.2,0.393,0.5,0,1.1,9.5,1.6,80,16.5,0.5,0.1,47.4,,,,
players,Wendell,Carter Jr.,C,20,205.74,270,4,77,1.5,3.8,0.707,7.7,0.603,0.6,0.133,3.5,30,6.3,20,1,80,33.75,0.7,0.8,89.1,,,,
players,Kris,Dunn,PG,25,190.5,205,4,86,1,0.7,0.737,4.6,0.542,2.3,0.183,0.5,30,2.7,35,2.9,80,29,2,0.3,65.1,,,,
players,Daniel,Gafford,C,21,208.28,234,4,68,0.2,1.2,0.476,2.7,0.739,0,0,0.8,25,0.9,9.5,0.2,80,27.61904762,0.1,0.9,31.5,R,,,
players,Shaquille,Harrison,SG,26,200.66,190,4,83,0.4,1.1,0.611,2.4,0.436,0.6,0.3,0.4,25,1.5,17,1.4,80,20.76923077,0.5,0.3,26.4,,,,
players,Chandler,Hutchison,SF,23,200.66,210,4,77,1.3,3.2,0.655,3.6,0.469,1.3,0.417,0.1,0,3.6,32,0.9,80,18.15217391,0.6,0.2,51.3,,,,
players,Luke,Kornet,C,24,218.44,250,4,71,0.2,0.4,1,1.5,0.476,1.9,0.185,0.4,0,1.1,8,0.4,80,17.29166667,0.1,0.7,30.3,,,,
players,Zach,LaVine,SG,24,198.12,200,4,71,3.4,5.2,0.806,10.3,0.449,7.5,0.418,0.7,35,3.7,45.5,4,80,37.29166667,1.2,0.5,97.5,SP,,,
players,Lauri,Markkanen,PF,22,213.36,240,4,74,1.9,4.1,0.811,5.7,0.463,6,0.327,1,25,5.6,30.5,1.7,80,24.09090909,0.8,0.5,89.7,,,,
players,Otto,Porter,SF,26,203.2,198,4,68,0.8,2.2,0.75,4.9,0.432,4.4,0.4,0.9,25,2.6,32,1.6,80,20.76923077,1,0.3,75.3,,,,
players,Tomas,Satoransky,PG,28,200.66,210,4,71,2.1,1.6,0.881,4.7,0.475,2.9,0.395,0.8,30,2.5,24.5,5.3,80,24.46428571,1.5,0.1,81.6,,,,
players,Max,Strus,SG,23,195.58,215,4,47,0,0.5,1,1,1,0.5,0,0.5,0,0,5,0,80,20.65217391,0,0,9,R,,,
players,Denzel,Valentine,SF,26,193.04,220,4,80,0.3,0.2,1,1.9,0.565,3.6,0.419,0.2,25,1.8,12.5,1.3,80,23.26923077,0.7,0.3,35.7,EX,,,
players,Coby,White,PG,19,193.04,195,4,65,1.5,1.8,0.792,6.2,0.391,5.8,0.338,0.3,0,3.4,39.5,2.5,80,17.5,0.7,0,75.9,R,,,
players,Thaddeus,Young,PF,31,203.2,235,4,74,1.6,1.2,0.567,5.5,0.453,3.3,0.341,1.5,0,2.8,23,1.7,80,15.32258065,1,0.3,64.8,,,,
,,,,,,,,,,,,,,,,,,,,,,,,,,,,,
,,,,,,,,,,,,,,,,,,,,,,,,,,,,,
// Cleveland Cavaliers,,,,,,,,,,,,,,,,,,,,,,,,,,,,,
,,,,,,,,,,,,,,,,,,,,,,,,,,,,,
players,Jordan,Clarkson,SG,27,193.04,194,5,41,1.4,3.1,0.893,5.8,0.482,5.3,0.346,0.7,25,1.6,24.5,2.5,80,22.59259259,0.5,0.3,67.5,,,,
players,Tyler,Cook,PF,22,203.2,255,5,53,0.2,0.3,1,1,0.833,0,0.25,0.5,0,0.3,9.5,0,80,21.59090909,0.2,0,8.4,R,,,
players,Matthew,Dellavedova,PG,29,190.5,200,5,41,0.7,0.6,0.929,1.3,0.517,1.7,0.105,0.3,0,1,5,2.2,80,8.879310345,0.4,0,39.6,,,,
players,Darius,Garland,PG,20,185.42,192,5,35,2.5,1.1,0.852,6.3,0.388,4.5,0.367,0.3,0,1.5,24.5,2.8,80,3.75,0.7,0,83.7,R,,,
players,John,Henson,PF,29,205.74,219,5,68,0.8,1.5,0.333,3.3,0.7,0.8,0,1,25,1.5,9.5,1.3,80,18.87931034,0.7,1,36,,,,
players,Brandon,Knight,PG,28,187.96,182,5,44,0.8,0.8,0.333,1.1,0.444,3.9,0.323,0.1,0,0.9,5,1.9,80,16.96428571,0.5,0,35.7,,,,
players,Kevin,Love,PF,31,203.2,251,5,59,2.8,4.4,0.864,5.7,0.522,5.7,0.354,1.1,30,9.5,17,2.6,80,22.82258065,0.7,0.4,90.9,PT,,,
players,Alfonzo,McKinnie,SF,27,200.66,215,5,50,0.5,0.6,0.636,1.5,0.36,1.5,0.32,0.6,0,1.5,9.5,0.2,80,12.59259259,0.4,0.2,30.9,,,,
players,Larry,Nance Jr.,C,27,200.66,245,5,56,1,1.6,0.714,4.1,0.6,3.1,0.377,1.9,35,5.4,12.5,1.5,80,30.09259259,0.9,0.5,76.5,SP,,,
players,Cedi,Osman,SF,24,200.66,230,5,47,1.3,1.3,0.656,3.7,0.483,4.3,0.353,0.4,25,3,26,2.3,80,22.29166667,1.1,0.3,86.4,,,,
players,Kevin,Porter Jr.,SF,19,193.04,203,5,53,1.6,1.3,0.733,4.3,0.495,2.6,0.322,0.3,0,2.8,26,2,80,22.5,1,0.2,63.9,R,,,
players,Collin,Sexton,SG,21,185.42,190,5,38,1.8,3.5,0.812,12,0.471,3.4,0.309,1,0,2,56,2.4,80,12.61904762,0.9,0,90.9,,,,
players,Tristan,Thompson,C,28,205.74,254,5,56,1.7,3.3,0.566,10.9,0.522,0.3,0.429,4,35,5.9,17,2.3,80,34.46428571,0.9,1.1,93.9,,,,
players,Dean,Wade,PF,23,205.74,228,5,53,0,0,0.6,0.3,0,0.3,1,0,0,0.7,5,0,80,20.65217391,0.3,0,18,R,,,
players,Ante,Zizic,C,23,208.28,266,5,50,0.1,0.8,0.833,3.3,0.5,0,0,0.9,0,1.8,9.5,0,80,18.15217391,0.3,0.3,31.8,,,,
,,,,,,,,,,,,,,,,,,,,,,,,,,,,,
,,,,,,,,,,,,,,,,,,,,,,,,,,,,,
// Dallas Mavericks,,,,,,,,,,,,,,,,,,,,,,,,,,,,,
,,,,,,,,,,,,,,,,,,,,,,,,,,,,,
players,J.J.,Barea,PG,35,177.8,180,6,59,0.8,0.3,1,4.7,0.357,2.8,0.588,0.3,0,1.3,5,2.8,80,13.57142857,0.3,0.2,42,,,,
players,Ryan,Broekhoff,SG,29,198.12,215,6,71,0.3,0,0.75,0.8,0,1.3,0.8,0,0,1.3,5,0.8,80,16.37931034,0.3,0,18.9,,,,
players,Jalen,Brunson,PG,23,185.42,190,6,62,0.9,1.3,0.71,4.1,0.574,1.9,0.326,0.6,25,1.8,20,2.6,80,25.65217391,0.5,0,47.1,PT,,,
players,Seth,Curry,SG,29,187.96,185,6,59,0.8,1.5,0.935,2.3,0.51,3.9,0.383,0.4,25,1.5,24.5,1.6,80,21.37931034,0.6,0.2,63.6,,,,
players,Luka,Doncic,PG,20,200.66,230,6,77,4.6,9.3,0.814,10.7,0.615,9.5,0.32,1.3,100,8.5,42.5,9.2,80,96.25,1.3,0.1,100.2,CG,,,
players,Dorian,Finney-Smith,SF,26,200.66,220,6,62,1,1.5,0.706,3,0.643,3.7,0.329,1.9,30,3.2,27.5,1.1,80,28.26923077,0.6,0.4,80.7,,,,
players,Tim,Hardaway Jr.,SG,27,195.58,205,6,56,0.5,2.2,0.82,4,0.516,6.4,0.381,0.3,30,1.8,27.5,1.8,80,25.09259259,0.6,0.1,74.4,EX,,,
players,Justin,Jackson,SF,24,200.66,220,6,62,0.2,0.6,0.769,2.6,0.534,2.6,0.397,0.4,0,2.1,20,0.4,80,19.79166667,0.2,0.1,42.3,,,,
players,Maxi,Kleber,C,28,208.28,240,6,62,0.7,1.4,0.903,2.5,0.5,3.8,0.369,1.7,30,4,9.5,1,80,24.46428571,0.2,0.6,72.9,,,,
players,Courtney,Lee,SG,34,195.58,215,6,50,0.1,0,0.7,1.4,0.6,1.7,0.583,0,0,0.4,15.5,0.4,80,13.97058824,0,0.3,26.7,,,,
players,Boban,Marjanovic,C,31,223.52,290,6,77,0.9,1.6,0.813,5.5,0.564,0.1,0,1.5,0,4,8,0.7,80,15.32258065,0.2,0.3,39.3,,,,
players,Kristaps,Porzingis,PF,24,220.98,240,6,80,1.6,3.8,0.702,8.8,0.438,5.9,0.338,1.7,0,7,23,1.4,80,19.79166667,0.5,2,90.6,IH,,,
players,Dwight,Powell,C,28,208.28,240,6,65,1,2.1,0.561,4.3,0.718,0.7,0.462,1.6,35,3.1,12.5,1.3,80,29.46428571,0.8,0.4,75.9,,,,
players,Delon,Wright,SG,27,195.58,185,6,71,0.7,1.5,0.824,4.2,0.533,1.7,0.351,0.8,35,2.6,26,3.4,80,32.59259259,1.1,0.3,63.6,,,,
,,,,,,,,,,,,,,,,,,,,,,,,,,,,,
,,,,,,,,,,,,,,,,,,,,,,,,,,,,,
// Denver Nuggets,,,,,,,,,,,,,,,,,,,,,,,,,,,,,
,,,,,,,,,,,,,,,,,,,,,,,,,,,,,
players,Will,Barton III,SF,29,195.58,181,7,83,1.3,2.4,0.729,7.5,0.487,4.7,0.404,1.6,35,5,33.5,3.5,80,36.37931034,1.1,0.5,97.8,PT,,,
players,Malik,Beasley,SG,23,193.04,187,7,74,0.9,0.4,0.857,3.3,0.356,3,0.407,0.3,0,1.2,18.5,1,80,15.65217391,0.4,0.1,47.1,EX,,,
players,Vlatko,Cancar,SF,22,203.2,236,7,56,0,0,0.5,0,0.5,0,0.25,0,0,0,5,0,80,21.59090909,0,0,6,R,,,
players,Torrey,Craig,SF,29,200.66,221,7,89,0.4,0.6,0.444,1.5,0.522,1.3,0.2,0.6,25,1.7,15.5,1,80,18.87931034,0.3,0.8,39.9,,,,
players,Jerami,Grant,PF,25,203.2,210,7,80,0.8,1.9,0.595,4.3,0.511,3.4,0.36,0.5,25,2.9,14,1.1,80,21.5,0.4,0.6,66,,,,
players,Gary,Harris,SG,25,193.04,210,7,77,1,1.5,0.781,5.6,0.455,4.2,0.359,0.5,30,2.5,35,2,80,26.5,1.2,0.3,95.7,PT,,,
players,Juan,Hernangomez,PF,24,205.74,214,7,71,0.6,0.6,0.556,1.3,0.45,2.5,0.324,0.5,0,1.9,15.5,0.7,80,17.29166667,0.1,0.2,42,,,,
players,Nikola,Jokic,C,24,213.36,284,7,92,2.5,2.5,0.796,10.1,0.561,4,0.23,2,65,7.9,17,6.3,80,54.79166667,1,0.6,93,IH,,,
players,Paul,Millsap,PF,34,200.66,257,7,89,1.2,3.4,0.878,6.8,0.483,2.5,0.463,2,35,3.9,24.5,1.3,80,28.97058824,0.9,0.8,77.1,PT,,,
players,Monte,Morris,PG,24,187.96,183,7,77,0.7,1.4,0.733,5.3,0.431,1.4,0.4,0.2,0,1.5,27.5,3.3,80,19.79166667,0.5,0.3,53.4,,,,
players,Jamal,Murray,PG,22,193.04,215,7,83,2.2,2.8,0.903,10.3,0.482,4.9,0.336,0.8,35,3.4,26,4.5,80,39.09090909,1.5,0.4,94.5,SP,,,
players,Mason,Plumlee,C,29,210.82,254,7,101,1.6,2.3,0.529,4.5,0.606,0.2,0,1.7,35,4,11,2.2,80,31.37931034,0.8,0.8,49.8,,,,
players,Michael,Porter Jr.,PF,21,208.28,218,7,80,0.6,0.8,0.7,2.8,0.486,1.2,0.333,0.9,0,1.8,11,0.4,80,20.11904762,0,0.2,27,R,,,
players,Jarred,Vanderbilt,SF,20,205.74,214,7,74,0.3,0,0.4,0,0.5,0,0.125,0,0,0.7,5,0.3,80,23.75,0,0,9,,,,
,,,,,,,,,,,,,,,,,,,,,,,,,,,,,
,,,,,,,,,,,,,,,,,,,,,,,,,,,,,
// Detroit Pistons,,,,,,,,,,,,,,,,,,,,,,,,,,,,,
,,,,,,,,,,,,,,,,,,,,,,,,,,,,,
players,Jordan,Bone,PG,22,190.5,180,8,41,0.7,0,0.6,1.3,0.5,0.3,0,0,0,0,5,0,80,21.59090909,0,0,6,R,,,
players,Bruce,Brown,SG,23,193.04,202,8,65,1.8,1.6,0.564,5.3,0.453,1.6,0.333,0.9,25,3.4,21.5,3.6,80,23.15217391,0.9,0.5,78.9,,,,
players,Sekou,Doumbouya,SF,19,203.2,230,8,56,0,0.3,0,1.3,0.6,0.3,0,0,0,0.5,5,0,80,25,0,0,8.4,R,,,
players,Andre,Drummond,C,26,208.28,279,8,95,3.6,4.5,0.639,13,0.559,0.5,0,4.7,65,12,20,3,80,50.76923077,1.7,1.9,101.4,HH,,,
players,Tim,Frazier,PG,29,182.88,170,8,65,0.9,1.1,0.786,2.2,0.214,1.1,0.214,0.3,0,0.7,6.5,2.9,80,11.37931034,0.6,0.2,31.8,,,,
players,Langston,Galloway,SG,28,185.42,200,8,53,0.8,2.1,0.9,3,0.493,5.9,0.43,0.4,35,1.8,32,1.5,80,29.46428571,0.6,0.3,82.8,,,,
players,Blake,Griffin,PF,30,205.74,250,8,56,2.8,6.3,0.773,8.5,0.461,5.9,0.31,1,0,3.9,24.5,3.3,80,13.33333333,0.4,0.3,87.9,PT,,,
players,Reggie,Jackson,PG,29,190.5,208,8,47,0.5,1.5,1,5.5,0.5,2.5,0.3,0.5,0,2,20,4,80,16.37931034,0,0,54,,,,
players,Luke,Kennard,SG,23,195.58,206,8,53,1.4,2.9,0.896,6,0.5,6.4,0.399,0.3,35,3.2,27.5,4.2,80,33.15217391,0.5,0.2,98.4,EX,,,
players,Thon,Maker,C,22,213.36,221,8,68,0.5,1.4,0.516,1.3,0.552,0.6,0.5,0.5,25,1.2,5,0.4,80,24.09090909,0.3,0.6,31.5,,,,
players,Markieff,Morris,PF,30,203.2,245,8,62,1.7,1.5,0.765,4.3,0.52,3.8,0.398,0.5,0,3.3,17,1.5,80,15.83333333,0.7,0.2,66,,,,
players,Svi,Mykhailiuk,SF,22,200.66,205,8,53,0.9,0.3,0.833,1.2,0.348,3.3,0.46,0.2,0,1,26,1.3,80,21.59090909,0.4,0.1,51.3,,,,
players,Derrick,Rose,PG,31,187.96,200,8,56,2.5,2.8,0.87,10.9,0.522,2.3,0.326,0.5,25,1.5,26,5.8,80,20.32258065,0.8,0.4,71.1,PT,,,
players,Tony,Snell,SF,28,198.12,213,8,50,0.5,0.2,1,1.8,0.514,4.3,0.447,0.3,25,1.6,30.5,1.5,80,21.96428571,0.4,0.1,76.2,,,,
players,Khyri,Thomas,SG,23,190.5,210,8,38,0,1,0.5,0,0.45,0,0.25,0,0,0,5,0,80,20.65217391,0,0,9,,,,
players,Christian,Wood,PF,24,208.28,214,8,74,1,2.5,0.655,3.9,0.674,1.4,0.484,1.2,30,3.3,21.5,0.5,80,27.29166667,0.3,0.8,45,,,,
,,,,,,,,,,,,,,,,,,,,,,,,,,,,,
,,,,,,,,,,,,,,,,,,,,,,,,,,,,,
// Golden State Warriors,,,,,,,,,,,,,,,,,,,,,,,,,,,,,
,,,,,,,,,,,,,,,,,,,,,,,,,,,,,
players,Ky,Bowman,PG,22,185.42,187,9,47,1.2,0.8,0.909,5,0.473,2.5,0.415,0.5,0,2.2,23,2.7,80,16.59090909,0.9,0.1,68.7,R,,,
players,Alec,Burks,SG,28,198.12,214,9,50,1.5,4.1,0.895,7.9,0.456,4.1,0.351,0.7,25,3.8,39.5,2.9,80,19.46428571,1.1,0.3,88.2,,,,
players,Willie,Cauley-Stein,C,26,213.36,240,9,71,0.9,1.4,0.667,6.4,0.551,0,0,1.5,30,5,21.5,1.5,80,25.76923077,1,1.3,67.2,,,,
players,Marquese,Chriss,C,22,205.74,240,9,65,1.4,2.2,0.839,4.7,0.521,0.8,0.2,1.6,30,3.3,12.5,1.9,80,29.09090909,0.7,1,54,,,,
players,Stephen,Curry,PG,31,190.5,185,9,56,3.8,4.5,1,7.3,0.621,9.3,0.483,1,25,4,62,6.5,80,20.32258065,1.3,0.5,84,HF,,,
players,Jacob,Evans III,SG,22,193.04,210,9,32,0.4,0.8,1,2,0.2,1.6,0.5,0.2,0,1,11,0.6,80,19.09090909,0,0,36,,,,
players,Draymond,Green,PF,29,198.12,230,9,68,2.3,2.5,0.721,5.4,0.478,2.6,0.267,0.4,25,5.8,18.5,5.9,80,21.37931034,1.7,0.6,86.4,CG,,,
players,Damion,Lee,SG,27,195.58,210,9,47,1.1,2.8,0.848,5,0.433,3.2,0.316,0.8,0,2.9,35,1.7,80,12.59259259,0.7,0,63.9,,,,
players,Kevon,Looney,C,23,205.74,222,9,50,0.7,0.8,0.6,3.2,0.368,0.2,1,1.7,0,1.5,5,0.3,80,18.15217391,0.2,0.3,30.6,,,,
players,Eric,Paschall,PF,23,198.12,255,9,41,1.6,4.4,0.807,9.7,0.543,2.4,0.288,1.4,0,3.6,23,1.7,80,13.15217391,0.4,0.4,92.7,R,,,
players,Jordan,Poole,SG,20,193.04,194,9,44,1.2,2,0.857,4.6,0.27,4.9,0.246,0.2,0,2.1,18.5,2,80,-1.25,0.6,0.3,72,R,,,
players,Glenn,Robinson III,SF,26,198.12,222,9,47,0.9,1.4,0.833,7,0.489,3.3,0.376,1.5,0,3.2,39.5,1.7,80,18.26923077,1,0.3,96.6,,,,
players,D'Angelo,Russell,SG,23,193.04,193,9,44,3.2,4.9,0.739,9.9,0.496,8.5,0.361,0.3,30,3.4,57.5,6.2,80,28.15217391,0.8,0.4,93.9,EX,,,
players,Omari,Spellman,PF,22,203.2,245,9,59,1.4,1.8,0.841,4.2,0.471,2.1,0.365,2.2,25,3.3,11,1,80,24.09090909,0.6,0.6,54.3,,,,
players,Klay,Thompson,SG,29,198.12,215,9,56,1.5,2,0.816,10.3,0.516,7.7,0.402,0.5,0,3.4,38,2.4,80,16.37931034,1.1,0.6,102,HF,,,
,,,,,,,,,,,,,,,,,,,,,,,,,,,,,
,,,,,,,,,,,,,,,,,,,,,,,,,,,,,
// Houston Rockets,,,,,,,,,,,,,,,,,,,,,,,,,,,,,
,,,,,,,,,,,,,,,,,,,,,,,,,,,,,
players,Clint,Capela,C,25,208.28,240,10,80,1.7,3,0.467,9.8,0.651,0,0,4.4,35,10.4,41,1,80,31.5,0.9,1.9,98.7,IH,,,
players,Tyson,Chandler,C,37,213.36,235,10,71,0.3,0.5,0.556,0.9,0.765,0,0,1.1,25,1.7,6.5,0.3,80,15.33783784,0.3,0.4,27.3,,,,
players,Gary,Clark,PF,25,198.12,225,10,56,0.1,0.2,1,0.6,0.6,2.8,0.36,0.7,0,1.7,5,0.6,80,19,0.1,0.3,34.8,,,,
players,Chris,Clemons,SG,22,175.26,180,10,50,0.4,0.2,0.75,0.8,0.538,2.9,0.388,0.1,0,0.5,11,0.4,80,19.09090909,0.2,0.1,25.2,R,,,
players,Eric,Gordon,SG,31,190.5,215,10,50,1.3,1.6,0.643,4,0.361,8.2,0.284,0.3,0,1.6,26,0.8,80,5.322580645,0.6,0.2,88.2,,,,
players,Gerald,Green,SG,34,198.12,205,10,53,0.8,0.9,0.838,1.9,0.547,6,0.354,0.4,0,2.1,5,0.5,80,13.97058824,0.5,0.4,60.6,,,,
players,James,Harden,SG,30,195.58,220,10,68,5.1,14,0.881,10.5,0.562,14,0.349,0.9,100,5,17,7.5,80,85.83333333,2,0.6,113.7,CG,,,
players,Isaiah,Hartenstein,C,21,213.36,250,10,68,0.8,1.4,0.818,1.8,0.786,0.1,0,1,0,2.3,60.5,0.5,80,22.61904762,0.3,0.5,36,,,,
players,Danuel,House Jr.,SF,26,198.12,220,10,59,1,2.2,0.821,2.6,0.532,5.8,0.41,1.1,30,3,38,1.4,80,28.26923077,1.1,0.6,88.8,,,,
players,Ben,McLemore III,SG,26,190.5,195,10,56,0.8,1.2,0.862,1.2,0.714,7,0.345,0.4,25,2.1,32,1,80,20.76923077,0.6,0.3,68.4,,,,
players,Austin,Rivers,PG,27,190.5,200,10,50,0.7,1.3,0.714,3,0.537,4.3,0.326,0.8,0,2,18.5,1.5,80,15.09259259,0.5,0.2,74.7,,,,
players,Thabo,Sefolosha,SF,35,198.12,215,10,68,0.3,0.1,0,0.9,0.444,1.4,0.286,0.6,0,1.8,6.5,0.8,80,13.57142857,0.5,0.2,31.8,,,,
players,P.J.,Tucker,PF,34,195.58,245,10,65,1.1,0.9,0.818,2.5,0.617,4.5,0.431,1.6,35,5.5,66.5,1.4,80,33.97058824,1.3,0.5,107.4,PT,,,
players,Russell,Westbrook,PG,31,190.5,200,10,71,4.5,6,0.752,14.7,0.489,5.1,0.23,1.6,35,6.4,5,7.4,80,27.82258065,1.7,0.4,103.5,CG,,,
,,,,,,,,,,,,,,,,,,,,,,,,,,,,,
,,,,,,,,,,,,,,,,,,,,,,,,,,,,,
// Indiana Pacers,,,,,,,,,,,,,,,,,,,,,,,,,,,,,
,,,,,,,,,,,,,,,,,,,,,,,,,,,,,
players,Goga,Bitadze,C,20,210.82,250,11,83,0.5,1,0.737,2.3,0.512,0.7,0.286,0.8,25,1.9,6.5,0.7,80,28.75,0.1,1,34.8,R,,,
players,Brian,Bowen II,SG,21,198.12,190,11,77,0,0,0.6,1,0.333,0.3,0,0,0,0.3,5,0,80,22.61904762,0,0.3,9.9,R,,,
players,Malcolm,Brogdon,PG,27,195.58,229,11,71,2.8,4.4,0.946,10.2,0.528,4.3,0.356,0.6,35,4,29,7.5,80,42.59259259,1,0.2,94.8,CG,,,
players,Aaron,Holiday,PG,23,182.88,185,11,74,1.3,0.7,0.867,4.7,0.431,3.8,0.391,0.4,25,2.1,23,2.7,80,23.15217391,0.9,0.1,63.9,,,,
players,Justin,Holiday,SG,30,198.12,180,11,80,0.6,0.9,0.826,2.6,0.439,4.1,0.402,0.5,35,3.4,26,1.5,80,33.33333333,1.1,0.6,76.2,,,,
players,Alize,Johnson,SF,23,200.66,212,11,65,0.1,0.5,0.75,1.4,0.455,0,0.2,0.8,0,0.8,12.5,0.3,80,20.65217391,0,0,13.8,,,,
players,Jeremy,Lamb,SG,27,195.58,180,11,77,1.4,2.9,0.804,8.6,0.54,4,0.297,0.6,30,4.3,24.5,2.6,80,25.09259259,1.1,0.6,95.4,,,,
players,T.J.,Leaf,PF,22,208.28,222,11,89,0.4,0.5,0.625,3.1,0.447,0.7,0.455,1.3,0,2.5,20,0.4,80,21.59090909,0.5,0.2,31.5,,,,
players,T.J.,McConnell,PG,27,185.42,190,11,74,1.5,0.6,0.923,5.8,0.485,0.2,0.25,0.4,0,2.2,59,4.8,80,17.59259259,0.6,0.2,52.5,,,,
players,Doug,McDermott,SF,28,200.66,225,11,62,0.8,0.8,0.789,3.9,0.449,3.8,0.458,0.5,0,2.4,26,1.1,80,16.96428571,0.1,0.1,61.8,,,,
players,Naz,Mitrou-Long,SG,26,190.5,218,11,74,0.7,0,0.8,1.7,0.8,3.7,0.182,0,0,2,24.5,2.3,80,18.26923077,0.3,0.3,42.9,,,,
players,Victor,Oladipo,SG,27,193.04,213,11,77,2.7,4.6,0.78,11.5,0.511,5.9,0.362,0.6,70,4.7,53,4.6,80,62.59259259,2.1,0.6,99.9,HH,,,
players,Domantas,Sabonis,C,23,210.82,240,11,86,2.7,4.7,0.778,13,0.537,1.1,0.192,3.5,60,10,18.5,3.9,80,48.15217391,0.8,0.6,103.5,IH,,,
players,JaKarr,Sampson,SF,26,200.66,214,11,77,0.7,0.8,0.286,3.4,0.677,1.1,0.2,0.8,0,1.9,18.5,0.4,80,18.26923077,0.6,0.7,55.2,,,,
players,Edmond,Sumner,PG,24,193.04,196,11,77,0.3,1.3,0.6,4,0.563,0.8,0,0.3,0,0.5,35,2,80,19.79166667,1.3,0.3,54,,,,
players,Myles,Turner,C,23,210.82,250,11,83,1.6,2.1,0.75,5.4,0.473,4.1,0.348,1.5,30,4,9.5,1.2,80,30.65217391,0.6,2.4,91.2,,,,
players,T.J.,Warren,SF,26,203.2,220,11,68,1.4,3,0.811,11.1,0.542,3.2,0.4,0.7,25,2.7,12.5,1,80,23.26923077,1.1,0.3,98.7,EX,,,
,,,,,,,,,,,,,,,,,,,,,,,,,,,,,
,,,,,,,,,,,,,,,,,,,,,,,,,,,,,
// Los Angeles Clippers,,,,,,,,,,,,,,,,,,,,,,,,,,,,,
,,,,,,,,,,,,,,,,,,,,,,,,,,,,,
players,Patrick,Beverley,PG,31,185.42,180,12,86,1.5,1,0.609,2.9,0.507,4.3,0.33,1.4,35,4.9,17,3.2,80,40.32258065,1.5,0.5,88.5,PT,,,
players,Paul,George,SF,29,203.2,220,12,86,3.3,4.9,0.918,7.2,0.481,9.9,0.399,0.5,35,5.7,41,3.5,80,36.37931034,1.4,0.5,90,EX,,,
players,JaMychal,Green,PF,29,203.2,227,12,83,0.9,1,0.857,2,0.488,4.1,0.378,1.3,25,5.3,12.5,0.5,80,21.37931034,0.6,0.3,63.9,,,,
players,Maurice,Harkless,SF,26,200.66,220,12,80,1,1.2,0.567,3.2,0.56,1.7,0.341,1,35,2.7,23,1.1,80,33.26923077,1,0.7,70.5,,,,
players,Montrezl,Harrell,PF,25,200.66,240,12,80,1.7,5.2,0.625,12.7,0.609,0.4,0,2.8,65,4.9,45.5,2.1,80,51.5,0.7,1.2,87.9,EX,,,
players,Mfiondu,Kabengele,PF,22,205.74,250,12,77,0.1,0.3,1,0.9,0.375,1.2,0.455,0.1,0,0.7,18.5,0.1,80,21.59090909,0.1,0.1,12.6,R,,,
players,Kawhi,Leonard,SF,28,200.66,225,12,92,3.4,6.4,0.86,14.7,0.491,5,0.337,1.1,65,6.7,50,5.3,80,49.46428571,1.9,0.7,93.6,HF,,,
players,Terance,Mann,SG,23,195.58,215,12,74,0.6,0.4,0.875,1.5,0.567,0.5,0.222,0.2,0,1,11,1.2,80,20.65217391,0.3,0.1,25.5,R,,,
players,Rodney,McGruder,SG,28,193.04,205,12,65,0.5,0.5,0.375,1.7,0.48,2.3,0.314,0.7,0,1.7,12.5,0.8,80,16.96428571,0.3,0.2,51.9,,,,
players,Johnathan,Motley,PF,24,203.2,230,12,110,1,0,0.6,0.7,0,0.3,1,0.3,0,0.3,5,0.7,80,19.79166667,0.3,0,6.9,,,,
players,Patrick,Patterson,PF,30,203.2,235,12,68,0.3,0.7,0.75,1,0.333,3.3,0.403,0.7,25,2.2,21.5,0.8,80,20.83333333,0.2,0.1,43.2,,,,
players,Jerome,Robinson,SG,22,193.04,190,12,74,0.7,0.5,0.5,2.3,0.396,2,0.256,0.1,0,1.5,12.5,1,80,16.59090909,0.3,0.3,38.1,,,,
players,Landry,Shamet,SG,22,193.04,190,12,59,1.2,1,1,1.9,0.474,5.8,0.362,0,0,1.5,23,1.7,80,21.59090909,0.4,0.1,88.2,,,,
players,Derrick,Walton Jr.,PG,24,182.88,185,12,62,0.1,0.3,1,0.4,0.75,0.8,0.375,0.2,0,0.2,5,0.5,80,19.79166667,0.2,0,20.4,,,,
players,Lou,Williams,SG,33,185.42,175,12,65,3.1,6.1,0.842,10.9,0.44,5,0.349,0.5,30,2.8,47,6.2,80,21.89393939,0.5,0.2,93,EX,,,
players,Ivica,Zubac,C,22,213.36,240,12,89,0.9,2.4,0.825,5.4,0.593,0.1,0,2.5,35,4.2,17,0.9,80,39.09090909,0.2,1.1,50.1,,,,
,,,,,,,,,,,,,,,,,,,,,,,,,,,,,
,,,,,,,,,,,,,,,,,,,,,,,,,,,,,
// Los Angeles Lakers,,,,,,,,,,,,,,,,,,,,,,,,,,,,,
,,,,,,,,,,,,,,,,,,,,,,,,,,,,,
players,Kostas,Antetokounmpo,PF,22,208.28,200,13,80,0,0,0.45,0,0.5,0,0.2,0,0,0.5,5,0,80,21.59090909,0,0,4.5,,,,
players,Avery,Bradley,SG,29,190.5,180,13,74,1,0.7,0.75,5.4,0.576,2.6,0.276,0.6,0,2.5,27.5,1.6,80,16.37931034,0.9,0.1,79.5,,,,
players,Kentavious,Caldwell-Pope,SG,26,195.58,204,13,71,0.9,1,0.84,3.7,0.5,3.1,0.397,0.4,25,1.6,36.5,1.7,80,23.26923077,0.8,0.2,72.9,,,,
players,Alex,Caruso,PG,25,195.58,186,13,80,1.1,1,0.636,2.7,0.508,2.1,0.375,0.2,25,2,26,1.9,80,24,1.1,0.3,63,,,,
players,Quinn,Cook,PG,26,185.42,180,13,68,0.8,0.3,0.8,3.2,0.476,1.8,0.343,0.2,0,1,18.5,1.5,80,13.26923077,0.3,0.1,40.2,,,,
players,Troy,Daniels,SG,28,193.04,200,13,68,0.3,0.4,0.571,1.2,0.435,3.5,0.348,0.2,0,1.2,18.5,0.4,80,14.46428571,0.4,0.1,41.7,,,,
players,Anthony,Davis,PF,26,208.28,253,13,98,2.3,8.2,0.867,15.8,0.533,3.3,0.329,2.5,85,6.7,51.5,3.4,80,68.26923077,1.5,2.6,103.5,HH,,,
players,Jared,Dudley,SF,34,198.12,237,13,77,0.1,0.1,1,0.3,0,0.8,0.667,0.1,25,0.8,5,0.6,80,16.47058824,0.3,0.1,22.8,,,,
players,Danny,Green,SF,32,198.12,215,13,83,0.9,0.4,0.727,2,0.549,5,0.379,0.7,35,3.2,35,1.3,80,29.84375,1.3,0.5,76.5,EX,,,
players,Talen,Horton-Tucker,SG,19,193.04,234,13,53,0,0,0.5,0,0.45,1,0,0,0,0,5,1,80,25,0,0,6,R,,,
players,Dwight,Howard,C,34,208.28,265,13,95,1.1,2.8,0.507,3.6,0.733,0.1,0.333,2.1,35,4.9,9.5,0.8,80,28.97058824,0.4,1.4,59.7,HF,,,
players,LeBron,James,PG,35,205.74,250,13,83,3.8,5.4,0.694,14.1,0.56,6,0.356,1,100,6,81.5,10.8,80,76.07142857,1.3,0.5,103.5,HF,,,
players,Kyle,Kuzma,PF,24,203.2,221,13,71,1.8,2,0.692,4.9,0.5,4.5,0.36,0.4,0,3,27.5,0.9,80,12.29166667,0.3,0.4,69.3,,,,
players,JaVale,McGee,C,32,213.36,270,13,98,0.7,1.1,0.679,5.2,0.628,0,0,1.9,35,4.2,14,0.6,80,27.34375,0.6,1.1,49.2,,,,
players,Rajon,Rondo,PG,33,185.42,180,13,83,1.8,0.8,0.727,4.2,0.418,2.8,0.528,0.3,25,3.2,15.5,5.9,80,19.39393939,1.1,0.1,62.7,CG,,,
,,,,,,,,,,,,,,,,,,,,,,,,,,,,,
,,,,,,,,,,,,,,,,,,,,,,,,,,,,,
// Memphis Grizzlies,,,,,,,,,,,,,,,,,,,,,,,,,,,,,
,,,,,,,,,,,,,,,,,,,,,,,,,,,,,
players,Grayson,Allen,SG,24,193.04,198,14,50,1.2,1.3,0.882,3.8,0.469,3.3,0.349,0.2,0,2.8,38,1.5,80,14.79166667,0.4,0.1,56.7,,,,
players,Kyle,Anderson,PF,26,205.74,230,14,62,0.9,1.6,0.586,4.5,0.543,0.9,0.25,0.9,25,3.5,24.5,2.4,80,23.26923077,0.7,0.7,60.3,,,,
players,Dillon,Brooks,SG,24,200.66,225,14,53,1.3,2.5,0.82,7.8,0.435,4.7,0.357,1,0,2.4,47,1.9,80,17.29166667,1.1,0.3,82.5,,,,
players,Bruno,Caboclo,SF,24,205.74,218,14,68,0.5,0.2,0.667,2.6,0.564,1.3,0.2,0.9,0,1.4,9.5,0.5,80,19.79166667,0.5,0.7,32.1,,,,
players,Brandon,Clarke,PF,23,203.2,215,14,65,1.1,1.5,0.786,6.7,0.664,1.3,0.5,1.3,30,4.7,24.5,1.2,80,30.65217391,0.5,1,63.6,R,,,
players,Jae,Crowder,SF,29,198.12,235,14,56,1.5,2.1,0.725,2.7,0.531,6.4,0.325,0.7,30,5.3,32,2.8,80,23.87931034,1,0.3,93,PT,,,
players,Marko,Guduric,SG,24,198.12,201,14,50,1.1,0.6,0.867,2.5,0.475,2.4,0.31,0.5,0,1.5,24.5,1.4,80,12.29166667,0.3,0.2,44.1,R,,,
players,Solomon,Hill,SF,28,198.12,226,14,59,0.9,0.8,0.611,2.4,0.453,3,0.369,0.5,25,2.8,18.5,1.8,80,19.46428571,1.1,0.1,60.3,,,,
players,Jaren,Jackson Jr.,PF,20,210.82,242,14,56,1.9,2.9,0.791,7.5,0.52,5.7,0.374,1.2,25,3.7,18.5,1.5,80,28.75,0.5,1.2,81.9,,,,
players,Tyus,Jones,PG,23,182.88,196,14,50,1.3,1,0.72,4.8,0.439,1.5,0.216,0,0,1.5,24.5,4.8,80,8.152173913,0.9,0.1,60.3,,,,
players,John,Konchar,SG,23,195.58,210,14,29,0,0,0.6,0,0.45,0,0.25,0,0,0,5,0,80,20.65217391,0,0,21,R,,,
players,De'Anthony,Melton,PG,21,187.96,200,14,71,1.4,1.4,0.889,3.5,0.467,1.4,0.333,0.7,25,2.5,20,2.8,80,25.11904762,1.2,0.2,43.8,,,,
players,Ja,Morant,PG,20,190.5,174,14,53,,15,0.786,12.4,0.47,2.4,0.422,0.8,25,2.3,47,6.4,80,28.75,1.3,0.3,87,R,,,
players,Jonas,Valanciunas,C,27,210.82,265,14,65,2.2,2.2,0.771,8.7,0.604,1.5,0.375,2.5,30,7.3,18.5,1.9,80,25.09259259,0.4,0.8,74.4,IH,,,
players,Yuta,Watanabe,SF,25,203.2,215,14,62,0,0,0.7,1.3,0.5,0.3,1,0,0,0.7,20,0,80,19,0,0.3,11.1,,,,
,,,,,,,,,,,,,,,,,,,,,,,,,,,,,
,,,,,,,,,,,,,,,,,,,,,,,,,,,,,
// Miami Heat,,,,,,,,,,,,,,,,,,,,,,,,,,,,,
,,,,,,,,,,,,,,,,,,,,,,,,,,,,,
players,Bam,Adebayo,PF,22,205.74,255,15,89,3,5.7,0.664,9.3,0.607,0.3,0.125,2.5,65,8,18.5,4.4,80,56.59090909,1.4,1.2,100.5,PT,,,
players,Jimmy,Butler,SF,30,200.66,230,15,86,2.6,9.3,0.827,10.3,0.476,3.5,0.304,2.1,70,4.8,47,7,80,53.33333333,2.1,0.8,105.3,CG,,,
players,Goran,Dragic,PG,33,190.5,190,15,68,2.6,4.2,0.711,6.2,0.518,5.3,0.406,0.3,25,2.9,38,5,80,19.39393939,0.7,0.2,86.1,IH,,,
players,Udonis,Haslem,C,39,203.2,235,15,74,0,2,0.75,0.5,1,0,0.215,0,0,1.5,5,0,80,12.17948718,0,0,16.5,HF,,,
players,Tyler,Herro,SG,20,195.58,195,15,71,2,2,0.83,6.2,0.49,5.4,0.379,0.3,0,3.6,18.5,2,80,21.25,0.8,0.1,86.1,R,,,
players,James,Johnson,PF,32,200.66,240,15,80,0.7,0.7,0.5,1.5,0.667,1.5,0.222,0.3,0,1.5,17,0.7,80,14.84375,0.5,0.3,33.9,,,,
players,Derrick,Jones Jr.,SF,22,198.12,210,15,80,0.6,1.3,0.615,3.1,0.581,1.2,0.167,0.6,0,2.1,11,0.9,80,21.59090909,0.8,0.3,50.1,SP,,,
players,Meyers,Leonard,C,27,213.36,260,15,77,0.8,0.4,0.556,2.2,0.642,1.8,0.5,0.3,25,3.9,6.5,1,80,22.59259259,0.3,0.5,54.6,,,,
players,Daryl,Macon,PG,24,187.96,185,15,50,0.5,0,0.8,0.3,0,0.5,0.5,0,0,0,5,0.3,80,19.79166667,0,0,10.5,,,,
players,Kendrick,Nunn,PG,24,187.96,190,15,71,2.1,1.6,0.816,8.2,0.531,6,0.345,0.3,0,2.4,35,3.4,80,19.79166667,1,0.3,91.5,R,,,
players,KZ,Okpala,SF,20,203.2,215,15,77,0.3,0,0.6,0,0.5,0,0.25,0,0,0.3,5,0,80,23.75,0,0,3,R,,,
players,Kelly,Olynyk,PF,28,210.82,240,15,80,1.4,1.5,0.886,2.7,0.5,3.8,0.413,1,30,3.9,15.5,1.3,80,26.96428571,0.9,0.4,69.3,,,,
players,Duncan,Robinson,SG,25,200.66,215,15,71,0.7,0.7,0.938,1.4,0.647,7,0.449,0.1,35,2.8,26,0.9,80,34,0.8,0.4,80.1,EX,,,
players,Chris,Silva,C,23,203.2,234,15,89,1.1,1.5,0.706,2,0.674,0.1,0,1.9,30,2,5,0.6,80,28.15217391,0.2,0.6,29.1,R,,,
players,Justise,Winslow,SF,23,198.12,222,15,71,2.3,2.7,0.667,10.1,0.436,2.6,0.231,1.6,0,5.5,26,4.3,80,18.15217391,0.6,0.4,101.1,,,,
,,,,,,,,,,,,,,,,,,,,,,,,,,,,,
,,,,,,,,,,,,,,,,,,,,,,,,,,,,,
// Milwaukee Bucks,,,,,,,,,,,,,,,,,,,,,,,,,,,,,
,,,,,,,,,,,,,,,,,,,,,,,,,,,,,
players,Giannis,Antetokounmpo,PF,25,210.82,242,16,104,3.8,10.8,0.588,15.4,0.642,5,0.319,2.7,100,10.5,99.5,5.5,80,89,1.3,1.3,94.8,IH,,,
players,Thanasis,Antetokounmpo,SF,27,198.12,219,16,59,0.5,1,0.5,2.5,0.6,0,0.25,0.8,0,0,20,1,80,17.59259259,0,0,18.9,,,,
players,Dragan,Bender,PF,22,213.36,249,16,77,0.3,0.3,1,1.3,1,1.3,0.5,0,0,0.7,20,1,80,21.59090909,0,0.7,29.1,,,,
players,Eric,Bledsoe,PG,30,185.42,214,16,83,2.3,3,0.797,8.4,0.533,3.7,0.348,0.8,35,4.1,50,5.7,80,35.83333333,0.8,0.5,81,PT,,,
players,Sterling,Brown,SG,24,195.58,219,16,92,0.9,1,0.706,2.3,0.436,2.5,0.395,0.6,25,4.1,17,1.5,80,24.79166667,0.7,0.1,49.8,,,,
players,Pat,Connaughton,SG,27,195.58,209,16,86,0.6,0.7,0.765,1.8,0.69,2.3,0.333,0.5,30,3.4,18.5,1.8,80,27.59259259,0.3,0.5,51.9,,,,
players,Donte,DiVincenzo,SG,23,193.04,203,16,92,1.2,1.2,0.769,3.7,0.5,3.7,0.354,0.8,30,3.3,27.5,1.6,80,30.65217391,1.5,0.1,63.3,,,,
players,George,Hill,PG,33,190.5,188,16,80,0.8,1.6,0.838,3.2,0.562,2.9,0.537,1,35,1.9,27.5,3.1,80,34.39393939,0.9,0.1,63,,,,
players,Ersan,Ilyasova,PF,32,205.74,235,16,89,0.3,1.4,0.818,3.1,0.653,2.5,0.333,1.3,30,3.6,20,0.7,80,24.84375,0.5,0.3,48.9,IH,,,
players,Kyle,Korver,SF,38,200.66,212,16,77,0.9,0.5,0.818,0.8,0.412,4,0.357,0.3,0,1.4,9.5,0.8,80,12.5,0.5,0.2,46.2,EX,,,
players,Brook,Lopez,C,31,213.36,282,16,95,1,2,0.913,3.8,0.506,4.9,0.301,0.6,35,4.2,9.5,1.4,80,32.82258065,0.7,2.3,78.9,,,,
players,Robin,Lopez,C,31,213.36,281,16,80,1.2,0.7,0.588,2.6,0.6,1.8,0.295,1.1,0,1.8,12.5,0.7,80,15.32258065,0.2,0.7,43.5,,,,
players,Frank,Mason III,PG,25,180.34,190,16,59,0,1,0.5,1,0,1,0.5,0,0,0,5,1,80,19,0,0,15,,,,
players,Wesley,Matthews,SG,33,193.04,220,16,74,0.8,1.1,0.852,1.9,0.563,4.4,0.394,0.2,30,2.1,29,1.4,80,21.89393939,0.6,0.1,71.7,,,,
players,Khris,Middleton,SF,28,200.66,222,16,83,1.7,2.7,0.896,8.5,0.549,5.2,0.394,0.7,35,5,30.5,3.4,80,31.96428571,0.9,0.1,82.5,PT,,,
players,D.J.,Wilson,PF,23,208.28,231,16,71,0.6,0.1,1,1.4,0.765,2.6,0.323,0.3,0,1.8,14,0.8,80,20.65217391,0,0.1,34.5,,,,
,,,,,,,,,,,,,,,,,,,,,,,,,,,,,
,,,,,,,,,,,,,,,,,,,,,,,,,,,,,
// Minnesota Timberwolves,,,,,,,,,,,,,,,,,,,,,,,,,,,,,
,,,,,,,,,,,,,,,,,,,,,,,,,,,,,
players,Keita,Bates-Diop,SF,24,203.2,229,17,47,0.4,0.8,0.6,2.7,0.563,2.9,0.486,0.5,0,2.3,15.5,0.7,80,19.79166667,0.3,0.5,57.6,,,,
players,Jordan,Bell,C,25,203.2,216,17,56,1,1.5,0.619,2.1,0.667,0.4,0,1.1,0,2.3,5,0.6,80,16.5,0,0.5,29.7,,,,
players,Robert,Covington,PF,29,200.66,209,17,62,1.6,2.3,0.887,3.6,0.59,5.7,0.364,0.7,30,4.6,38,1.1,80,26.37931034,1.3,0.8,83.7,PT,,,
players,Jarrett,Culver,PG,20,198.12,195,17,50,1.3,2.2,0.434,5.6,0.459,3.7,0.258,1.1,0,2.3,27.5,2.3,80,16.25,0.9,0.5,70.5,R,,,
players,Gorgui,Dieng,C,30,208.28,252,17,77,0.7,0.8,0.75,2.7,0.491,1.4,0.286,0.9,25,3.1,6.5,1.1,80,20.83333333,0.7,1,37.5,,,,
players,Treveon,Graham,SG,26,195.58,219,17,47,0.6,1,0.792,3.3,0.453,2.7,0.206,1,0,2.3,15.5,1,80,10.76923077,0.6,0.1,64.5,,,,
players,Jake,Layman,SF,25,203.2,209,17,50,1.3,0.7,0.6,5.6,0.538,3.9,0.352,0.9,0,2.1,33.5,0.8,80,16.5,0.9,0.7,79.2,,,,
players,Kelan,Martin,SF,24,195.58,230,17,47,0.4,0,0.7,2.2,0.5,2.7,0.208,0.2,0,2.7,14,0.3,80,14.79166667,0.1,0.1,41.1,R,,,
players,Jordan,McLaughlin,PG,23,180.34,185,17,41,1,0.5,1,1.8,0.429,2,0.125,0.3,0,1.5,5,2,80,18.15217391,0.3,0,42.9,R,,,
players,Shabazz,Napier,PG,28,182.88,175,17,59,1.7,2,0.875,2.3,0.593,3.8,0.244,0.1,0,1.8,21.5,3.1,80,16.96428571,1.1,0.3,52.8,,,,
players,Jaylen,Nowell,SG,20,193.04,201,17,32,0.5,0.5,1,0.5,1,1.5,0,0,0,0.5,5,1.5,80,23.75,0,0,22.5,R,,,
players,Josh,Okogie,SG,21,193.04,213,17,56,1.5,3.4,0.797,3.9,0.5,2.5,0.339,1.5,25,3.6,23,1.5,80,27.61904762,1,0.4,75.6,,,,
players,Naz,Reid,C,20,205.74,264,17,50,0,0,0.5,0,0.51,1,0.5,0,0,0.5,5,0,80,23.75,0,0,6,,,,
players,Jeff,Teague,PG,31,190.5,195,17,44,2.2,4.6,0.87,7.2,0.479,2.7,0.396,0.6,25,2.2,17,6.9,80,17.82258065,1,0.3,88.5,,,,
players,Karl-Anthony,Towns,C,24,210.82,248,17,65,3,5.9,0.798,8.9,0.605,8.5,0.414,2.7,85,9,20,4.5,80,69.79166667,1,1.3,101.4,HH,,,
players,Noah,Vonleh,C,24,208.28,257,17,53,0.8,1.2,0.842,2.1,0.576,0.6,0.1,1.1,0,2.3,5,1,80,19.79166667,0.3,0.2,33.9,,,,
players,Andrew,Wiggins,SF,24,200.66,197,17,50,2,5.3,0.726,13.8,0.511,6.6,0.336,1.3,30,4,21.5,3.4,80,27.29166667,0.7,1.2,104.4,,,,
,,,,,,,,,,,,,,,,,,,,,,,,,,,,,
,,,,,,,,,,,,,,,,,,,,,,,,,,,,,
// New Orleans Pelicans,,,,,,,,,,,,,,,,,,,,,,,,,,,,,
,,,,,,,,,,,,,,,,,,,,,,,,,,,,,
players,Nickiell,Alexander-Walker,SG,21,195.58,205,18,44,1.1,0.8,0.688,3.2,0.324,3.7,0.338,0.2,0,2,8,1.9,80,12.61904762,0.3,0.1,41.7,R,,,
players,Lonzo,Ball,PG,22,198.12,190,18,50,2.7,1,0.647,4.1,0.435,6.2,0.333,0.8,0,3.7,30.5,5.6,80,21.59090909,1.2,0.4,85.5,,,,
players,Zylan,Cheatham,SF,24,195.58,220,18,35,0.5,0,0.6,1.5,0.333,0.5,0,0,0,1.5,5,0.5,80,17.29166667,0,0,30,R,,,
players,Derrick,Favors,C,28,205.74,265,18,56,1.6,0.7,0.333,6.2,0.625,0.2,0.5,3.4,25,5.4,11,2.1,80,21.96428571,0.6,0.4,63,,,,
players,Josh,Gray,PG,26,182.88,180,18,26,2.5,0,0.75,1,0.5,0,0.25,0.5,0,0.5,5,1,80,15.76923077,0,0,34.5,,,,
players,Josh,Hart,SF,24,195.58,215,18,53,1.2,1.9,0.765,2.8,0.54,6.3,0.354,1,25,5,48.5,1.4,80,22.29166667,1.1,0.3,81.6,,,,
players,Jaxson,Hayes,C,19,210.82,220,18,56,0.9,3.4,0.667,5.5,0.633,0.1,0,1.9,30,2.7,51.5,0.7,80,35,0.9,1.1,63.6,R,,,
players,Jrue,Holiday,SG,29,190.5,205,18,53,3.4,2.7,0.667,12,0.507,5.2,0.342,1.2,35,3.8,50,6.6,80,28.87931034,1.9,0.7,107.7,CG,,,
players,Brandon,Ingram,SF,22,200.66,190,18,50,3,5.5,0.845,12.6,0.527,5.7,0.408,0.8,35,6.3,54.5,3.8,80,36.59090909,0.8,0.9,101.1,EX,,,
players,Frank,Jackson,PG,21,190.5,205,18,41,1,1.5,0.813,3.4,0.427,3,0.308,0.2,0,1.1,15.5,1,80,12.61904762,0.4,0,43.8,,,,
players,Nicolo,Melli,C,29,205.74,236,18,50,0.8,1,0.792,1.4,0.594,3,0.314,0.6,0,2,9.5,1.1,80,16.37931034,0.6,0.2,45.3,R,,,
players,E'Twaun,Moore,SG,30,190.5,191,18,41,0.7,1.4,0.636,5.3,0.447,3.4,0.382,0.8,0,2.4,14,1.4,80,10.83333333,0.5,0.1,61.2,,,,
players,Jahlil,Okafor,C,24,208.28,270,18,50,1.6,2.4,0.692,5.5,0.625,0.1,0.5,1.7,25,2.9,29,1.7,80,24.79166667,0.3,0.9,55.2,,,,
players,J.J.,Redick,SG,35,190.5,200,18,38,1.3,3.1,0.88,3.7,0.427,7.3,0.448,0.2,30,2.8,12.5,2,80,21.07142857,0.4,0.2,85.5,,,,
players,Kenrich,Williams,PF,25,198.12,210,18,53,0.8,1,0.409,1.7,0.59,3.2,0.288,1.6,30,4.3,20,1.8,80,26.5,0.9,0.7,75.6,,,,
players,Zion,Williamson,PF,19,198.12,284,18,49.4,2.4,6.2,0.64,11,0.647,2.2,0.265,2.4,35,4.8,68,2,80,42.5,1.4,1,90,R,,,
,,,,,,,,,,,,,,,,,,,,,,,,,,,,,
,,,,,,,,,,,,,,,,,,,,,,,,,,,,,
// New York Knicks,,,,,,,,,,,,,,,,,,,,,,,,,,,,,
,,,,,,,,,,,,,,,,,,,,,,,,,,,,,
players,Kadeem,Allen,SG,27,185.42,200,19,47,1,0,0.65,2,0,4,0.75,0,0,0,50,2,80,17.59259259,1,0,48,,,,
players,RJ,Barrett,SG,19,198.12,214,19,53,2.4,5,0.546,10.1,0.416,3.3,0.321,1.1,0,4.4,38,3.1,80,17.5,1.3,0.5,96.6,R,,,
players,Ignas,Brazdeikis,SF,21,198.12,221,19,35,0.3,0.6,0.75,1.7,0.333,1.1,0.125,0.3,0,0.4,11,0.3,80,20.11904762,0,0.1,20.1,R,,,
players,Damyean,Dotson,SG,25,195.58,210,19,44,0.5,0.7,0.714,2.3,0.542,3.3,0.3,0.2,0,1.5,18.5,1,80,14,0.4,0.2,48,,,,
players,Wayne,Ellington,SG,32,193.04,207,19,44,0.7,0.3,0.667,0.7,0.417,3.8,0.304,0.1,0,1.6,17,0.9,80,7.34375,0.3,0.1,42.9,,,,
players,Taj,Gibson,C,34,205.74,232,19,56,0.7,0.7,0.6,3.9,0.539,0.4,0.2,1.8,25,2.6,11,1.2,80,18.97058824,0.7,0.3,48.9,,,,
players,Kevin,Knox II,SF,20,200.66,215,19,47,0.7,2,0.66,3,0.389,3.7,0.341,0.4,0,2.5,23,1.3,80,18.75,0.5,0.4,59.4,,,,
players,Marcus,Morris Sr.,SF,30,203.2,218,19,50,1.8,4.5,0.854,8.4,0.389,5.9,0.489,1.1,25,4.7,29,1.3,80,20.83333333,1,0.6,97.8,EX,,,
players,Frank,Ntilikina,PG,21,193.04,200,19,50,1.3,0.7,0.765,3.7,0.405,2.5,0.333,0.3,0,1.6,15.5,3.2,80,17.61904762,1.2,0.4,74.1,,,,
players,Elfrid,Payton,PG,25,190.5,195,19,65,2.1,1,0.875,5.5,0.409,1.9,0.4,0.9,0,2,17,4.1,80,19,1.9,0.1,64.5,,,,
players,Bobby,Portis,C,24,208.28,250,19,56,0.9,1.4,0.735,5.8,0.444,2.8,0.338,1.5,0,4.3,12.5,1.1,80,14.79166667,0.6,0.4,65.4,,,,
players,Julius,Randle,PF,25,203.2,250,19,50,3.2,5.7,0.664,10.4,0.5,3.5,0.261,2.4,25,6.3,24.5,3.5,80,21.5,0.7,0.1,96,,,,
players,Mitchell,Robinson,C,21,213.36,240,19,68,0.8,3.2,0.618,5.5,0.672,0,0,3,35,3.7,9.5,0.6,80,40.11904762,0.7,2,65.7,,,,
players,Dennis,Smith Jr.,PG,22,187.96,205,19,44,1.5,1.6,0.519,4.4,0.324,1.9,0.303,0.7,0,1.2,15.5,2.7,80,11.59090909,0.4,0.3,51.6,SP,,,
players,Allonzo,Trier,PG,24,193.04,200,19,41,1.4,2.8,0.788,1.9,0.609,2.7,0.438,0.1,0,1.3,24.5,1.3,80,19.79166667,0.2,0.3,39.3,,,,
,,,,,,,,,,,,,,,,,,,,,,,,,,,,,
,,,,,,,,,,,,,,,,,,,,,,,,,,,,,
// Oklahoma City Thunder,,,,,,,,,,,,,,,,,,,,,,,,,,,,,
,,,,,,,,,,,,,,,,,,,,,,,,,,,,,
players,Steven,Adams,C,26,210.82,265,20,77,1.5,3,0.531,7.5,0.614,0,0,3.1,35,6.2,11,3,80,43.26923077,0.5,1.3,81.3,,,,
players,Darius,Bazley,PF,19,203.2,208,20,71,0.8,0.8,0.611,1.9,0.4,1.8,0.341,0.3,0,3.5,11,0.5,80,17.5,0.3,0.4,50.7,R,,,
players,Deonte,Burton,SG,26,193.04,240,20,62,0.3,0.3,0.75,1.3,0.5,1.4,0.294,0.3,0,1.5,9.5,0.3,80,15.76923077,0.1,0.1,25.2,,,,
players,Hamidou,Diallo,SF,21,195.58,202,20,80,1.2,1.5,0.611,6.6,0.557,1.1,0.154,1.2,0,2.7,27.5,0.8,80,22.61904762,1.5,0.3,63.9,SP,,,
players,Lugentz,Dort,SG,20,190.5,215,20,59,0.5,1.3,0.6,1.8,0.714,2,0,0,0,1.5,12.5,0.3,80,21.25,0.5,0,51.9,R,,,
players,Terrance,Ferguson,SF,21,198.12,190,20,56,0.7,0.5,0.778,1.4,0.593,3.4,0.354,0.6,25,1.3,11,1,80,25.11904762,0.5,0.3,78.6,SP,,,
players,Danilo,Gallinari,PF,31,208.28,233,20,65,1.5,4.7,0.907,5.7,0.496,6.9,0.399,0.5,35,5.3,15.5,2.1,80,30.32258065,0.7,0.1,91.5,IH,,,
players,Shai,Gilgeous-Alexander,SG,21,195.58,180,20,65,2.2,4.8,0.793,11.5,0.457,4,0.354,0.7,0,4.5,35,3,80,22.61904762,1,0.5,104.7,CG,,,
players,Mike,Muscala,C,28,208.28,240,20,68,0.4,0.5,0.875,0.9,0.429,2.9,0.273,0.4,0,1.9,6.5,0.9,80,16.96428571,0.3,0.2,33.3,,,,
players,Abdel,Nader,SF,26,195.58,225,20,62,1,1.4,0.833,2.5,0.512,2.6,0.467,0.4,0,1.6,20,0.5,80,18.26923077,0.4,0.4,52.2,,,,
players,Nerlens,Noel,C,25,208.28,220,20,92,1,2,0.804,4.7,0.654,0,0,1.4,35,3.6,9.5,1.5,80,41.5,1,1.6,55.8,,,,
players,Justin,Patton,C,22,210.82,241,20,62,0.5,0,0.4,1,0.5,0.5,0,0,0,1,5,0,80,21.59090909,0,0,13.5,,,,
players,Chris,Paul,PG,34,185.42,175,20,71,1.7,4.3,0.892,7.2,0.503,4.3,0.359,0.3,35,4,20,6.1,80,38.97058824,1.6,0.2,93.3,CG,,,
players,Andre,Roberson,SF,28,200.66,210,20,71,0.7,1.3,0.396,3.4,0.615,1.9,0.241,1.5,25,3.5,23,1.1,80,21.96428571,1.2,1,86.7,,,,
players,Dennis,Schroder,PG,26,185.42,172,20,62,2.6,2.6,0.806,9.4,0.529,4.8,0.328,0.3,0,3.3,33.5,3.4,80,18.26923077,0.8,0.3,88.2,,,,
,,,,,,,,,,,,,,,,,,,,,,,,,,,,,
,,,,,,,,,,,,,,,,,,,,,,,,,,,,,
// Orlando Magic,,,,,,,,,,,,,,,,,,,,,,,,,,,,,
,,,,,,,,,,,,,,,,,,,,,,,,,,,,,
players,Al-Farouq,Aminu,PF,29,203.2,220,21,80,0.9,1.6,0.655,2.8,0.32,2,0.25,1.3,0,3.5,11,1.2,80,16.37931034,1,0.4,63.3,,,,
players,D.J.,Augustin,PG,32,180.34,183,21,62,1.5,2.5,0.881,4.9,0.436,3.4,0.296,0.5,0,2,17,4.6,80,12.34375,0.8,0,76.8,,,,
players,Mohamed,Bamba,C,21,213.36,231,21,92,1.2,0.5,0.583,3.3,0.466,2,0.356,1.3,0,3.8,11,0.4,80,20.11904762,0.3,1.4,46.8,,,,
players,Khem,Birch,C,27,205.74,233,21,77,0.7,1.7,0.5,3.3,0.52,0.1,0,2.1,25,3.6,9.5,1.1,80,22.59259259,0.7,0.7,68.7,,,,
players,Michael,Carter-Williams,SG,28,195.58,190,21,86,1,1.9,0.704,3,0.381,1.5,0.19,1,25,2.1,20,2,80,19.46428571,0.9,0.5,46.8,,,,
players,Evan,Fournier,SG,27,200.66,205,21,65,2.1,3.9,0.84,8.1,0.51,6.3,0.441,0.2,35,2.8,33.5,3.3,80,35.09259259,0.9,0.2,92.7,,,,
players,Melvin,Frazier Jr.,SG,23,195.58,215,21,47,0,0,0.45,1.3,0.2,0.3,0,0.3,0,0,5,0.3,80,20.65217391,0,0,8.4,,,,
players,Markelle,Fultz,PG,21,190.5,209,21,71,1.8,2.3,0.792,8.6,0.53,1.7,0.211,0.4,25,2.3,35,4.1,80,27.61904762,1.3,0.2,77.4,,,,
players,Aaron,Gordon,PF,24,203.2,235,21,71,1.5,3.4,0.718,7.8,0.482,4,0.313,1.7,30,5.4,39.5,2.9,80,29.79166667,0.7,0.5,93.9,SP,,,
players,Jonathan,Isaac,SF,22,210.82,230,21,92,1.6,2.1,0.809,7.4,0.5,3.5,0.338,1.8,35,5.5,38,1.4,80,44.09090909,1.3,2.8,93,PT,,,
players,Wes,Iwundu,SF,25,198.12,195,21,74,0.5,1.5,0.833,2.5,0.4,0.9,0.091,0.4,0,1.8,24.5,0.8,80,16.5,0.6,0.3,44.4,,,,
players,Amile,Jefferson,PF,26,205.74,222,21,62,0.2,0,0.65,0.6,1,0,0,0.4,0,0.4,5,0.4,80,18.26923077,0,0,7.8,,,,
players,BJ,Johnson,SF,24,200.66,200,21,47,0,0,0.7,0,0.45,0,0.25,0,0,0,5,0,80,19.79166667,0,0,9,,,,
players,Josh,Magette,PG,30,185.42,160,21,128,1,0.7,0.5,2,0.333,0,0.3,0.3,0,0.7,15.5,0.7,80,15.83333333,0.7,0,9.9,,,,
players,Terrence,Ross,SG,28,198.12,206,21,71,1.2,2.3,0.84,5.2,0.509,6,0.323,0.3,0,2.6,27.5,1,80,16.96428571,1,0.3,73.8,EX,,,
players,Nikola,Vucevic,C,29,210.82,260,21,83,1.4,2.8,0.846,11.5,0.491,3.6,0.32,2.9,35,8.6,12.5,3.5,80,33.87931034,0.6,1.1,92.4,IH,,,
,,,,,,,,,,,,,,,,,,,,,,,,,,,,,
,,,,,,,,,,,,,,,,,,,,,,,,,,,,,
// Philadelphia 76ers,,,,,,,,,,,,,,,,,,,,,,,,,,,,,
,,,,,,,,,,,,,,,,,,,,,,,,,,,,,
players,Jonah,Bolden,PF,24,203.2,225,22,119,0.5,1,0,0.5,1,0,0.25,0,0,0,20,0,80,19.79166667,0.5,0,7.5,,,,
players,Trey,Burke,PG,27,182.88,185,22,74,0.4,1.2,0.727,4.7,0.452,1.8,0.375,0.7,25,0.8,6.5,3.4,80,20.09259259,0.8,0.1,50.7,,,,
players,Joel,Embiid,C,25,213.36,280,22,98,3.4,8.4,0.81,11.9,0.504,3.5,0.3,2.5,35,9.9,26,3.1,80,36.5,1,1.4,91.2,IH,,,
players,James,Ennis III,SF,29,198.12,215,22,80,0.6,1.8,0.783,2.8,0.563,2.2,0.418,1.1,30,2.3,27.5,0.9,80,26.37931034,0.6,0.3,52.5,,,,
players,Tobias,Harris,SF,27,203.2,226,22,83,2,3.4,0.798,11.2,0.548,4.4,0.324,0.7,35,6.3,35,3.2,80,32.59259259,0.9,0.8,102.6,EX,,,
players,Al,Horford,PF,33,205.74,240,22,86,1.2,1.6,0.676,7.7,0.54,4,0.366,1.7,60,5.1,17,3.9,80,41.89393939,1.1,1,92.4,PT,,,
players,Furkan,Korkmaz,SG,22,200.66,202,22,71,0.8,0.9,0.81,2.6,0.524,4.5,0.367,0.2,0,2.2,20,1,80,19.09090909,0.3,0.2,67.5,,,,
players,Shake,Milton,SG,23,195.58,205,22,68,1.3,1,0.778,1.8,0.5,2.1,0.211,0.1,0,0.8,14,0.8,80,15.65217391,0.1,0,27.3,,,,
players,Raul,Neto,PG,27,185.42,180,22,74,0.9,0.2,0.75,2.2,0.51,1.3,0.5,0.1,0,1,11,1.6,80,15.09259259,0.4,0.1,36.6,,,,
players,Kyle,O'Quinn,C,29,205.74,250,22,95,1.1,0.4,0.333,2.1,0.6,0.9,0.385,1.1,25,2.7,12.5,1.4,80,21.37931034,0.1,0.8,31.5,,,,
players,Norvel,Pelle,PF,26,208.28,231,22,110,1,3,0.667,1.5,0.667,0,0,1,0,4,5,1,80,18.26923077,0,2,37.5,R,,,
players,Josh,Richardson,SG,26,195.58,200,22,77,2.2,2.9,0.8,7.4,0.484,5.1,0.384,0.6,25,2.6,18.5,3.4,80,23.26923077,1.1,0.6,93.6,PT,,,
players,Mike,Scott,PF,31,200.66,237,22,71,0.4,0.6,0.8,1.9,0.583,3.4,0.345,0.7,0,2.6,17,0.7,80,15.32258065,0.3,0.1,55.8,,,,
players,Ben,Simmons,PG,23,208.28,240,22,92,3.8,3.9,0.573,10,0.574,0.2,0.4,1.6,60,5.4,63.5,8.4,80,50.65217391,2.2,0.5,102.9,CG,,,
players,Matisse,Thybulle,SG,22,195.58,201,22,95,1,0.8,0.75,1.6,0.421,2.3,0.463,0.3,35,0.9,26,1.3,80,34.09090909,1.5,0.7,51.3,R,,,
,,,,,,,,,,,,,,,,,,,,,,,,,,,,,
,,,,,,,,,,,,,,,,,,,,,,,,,,,,,
// Phoenix Suns,,,,,,,,,,,,,,,,,,,,,,,,,,,,,
,,,,,,,,,,,,,,,,,,,,,,,,,,,,,
players,Deandre,Ayton,C,21,210.82,250,23,68,2,3,0.72,12.2,0.643,0,0,3,25,8,35,1.7,80,25.11904762,1,1.7,99,PT,,,
players,Aron,Baynes,C,33,208.28,260,23,62,1.1,2.7,0.732,5.2,0.667,4.5,0.397,1.5,35,4.1,11,2.7,80,29.39393939,0.3,0.7,69.3,,,,
players,Devin,Booker,SG,23,195.58,206,23,53,3.8,5.6,0.903,12,0.554,5.5,0.406,0.6,35,3.3,71,6.4,80,40.65217391,0.6,0.3,107.7,HH,,,
players,Mikal,Bridges,SF,23,198.12,209,23,71,0.8,1.8,0.773,3.5,0.595,1.7,0.3,0.9,30,2.8,20,1.1,80,30.65217391,1.3,0.3,63.3,,,,
players,Jevon,Carter,PG,24,185.42,200,23,68,0.9,0.3,1,1.3,0.381,2.1,0.412,0.2,25,1.5,17,1.8,80,22.29166667,0.8,0.3,42.3,,,,
players,Cheick,Diallo,C,23,203.2,219,23,62,0.5,1,0.882,3.4,0.69,0.1,1,0.8,25,2.2,8,0.5,80,23.15217391,0.1,0.2,30.6,,,,
players,Jared,Harper,PG,22,180.34,175,23,38,0,0,0.6,0,0.4,1,0,0,0,0,5,0,80,21.59090909,0,0,6,R,,,
players,Ty,Jerome,PG,22,195.58,195,23,86,1,0.3,1,2.5,0.2,1.5,0.333,0,0,1.7,5,2.2,80,21.59090909,1.5,0,38.4,R,,,
players,Cameron,Johnson,SF,23,203.2,210,23,59,0.7,1,0.905,2.4,0.491,4.9,0.407,1,30,2.1,33.5,0.9,80,28.15217391,0.6,0.3,60.6,R,,,
players,Tyler,Johnson,SG,27,190.5,186,23,53,1,1.3,0.75,2.9,0.464,2.9,0.327,0.3,0,1.6,11,2.2,80,12.59259259,0.3,0.3,57.6,,,,
players,Frank,Kaminsky III,C,26,213.36,240,23,59,1,2.9,0.671,5.2,0.512,3.6,0.349,1,25,4.3,8,2.2,80,23.26923077,0.4,0.4,70.8,,,,
players,Elie,Okobo,PG,22,190.5,190,23,53,0.3,1.3,0.524,1.7,0.407,1.6,0.4,0.1,0,0.8,18.5,2.4,80,21.59090909,0.3,0,28.5,,,,
players,Kelly,Oubre Jr.,SF,24,200.66,203,23,68,1.6,4.7,0.788,9.1,0.505,4.6,0.324,1.4,25,4.8,48.5,1.4,80,24.79166667,1.3,0.9,97.2,SP,,,
players,Ricky,Rubio,PG,29,190.5,190,23,62,2.1,3.3,0.841,8.2,0.429,3.7,0.3,0.7,30,3.9,29,9.2,80,23.87931034,1.3,0.2,95.7,CG,,,
players,Dario,Saric,PF,25,208.28,225,23,65,1.3,1.7,0.854,4.5,0.523,4.8,0.339,1.8,35,5.4,15.5,2.2,80,31.5,0.8,0.4,84.3,,,,
,,,,,,,,,,,,,,,,,,,,,,,,,,,,,
,,,,,,,,,,,,,,,,,,,,,,,,,,,,,
// Portland Trail Blazers,,,,,,,,,,,,,,,,,,,,,,,,,,,,,
,,,,,,,,,,,,,,,,,,,,,,,,,,,,,
players,Carmelo,Anthony,PF,35,203.2,238,24,59,2.2,3.2,0.8,10.6,0.41,3.9,0.395,0.9,0,4.7,39.5,1.4,80,6.071428571,1.2,0.3,93.6,HF,,,
players,Kent,Bazemore,SF,30,193.04,195,24,65,1.4,1.8,0.8,3.8,0.337,3.6,0.344,0.4,0,3.8,30.5,1.6,80,13.33333333,0.9,0.7,69,,,,
players,Moses,Brown,C,20,218.44,245,24,95,0.3,1,0.5,1.8,0.429,0,0,0.5,0,1.8,5,0,80,21.25,0.3,0,11.4,R,,,
players,Zach,Collins,PF,22,210.82,250,24,44,2,2,1,4,0.5,2.3,0.429,1.3,0,2.7,5,2,80,21.59090909,0,0.7,86.1,,,,
players,Mario,Hezonja,SF,24,203.2,220,24,65,0.9,1.2,0.815,3,0.379,1.4,0.323,0.7,0,3.9,20,1,80,14.79166667,0.6,0.1,52.5,,,,
players,Jaylen,Hoard,SF,20,203.2,216,24,68,0,0.4,0.5,1.2,0.5,0,0.25,0.6,0,0.8,11,0.4,80,23.75,0.2,0,10.8,R,,,
players,Rodney,Hood,SF,27,203.2,208,24,50,0.9,1.3,0.778,4.8,0.515,3.4,0.493,0.5,30,3,21.5,1.5,80,25.09259259,0.8,0.2,88.5,,,,
players,Skal,Labissiere,C,23,208.28,235,24,62,1,0.9,0.682,4.1,0.588,0.4,0.222,2,30,3.1,11,1.1,80,28.15217391,0.2,1,50.4,,,,
players,Damian,Lillard,PG,29,187.96,195,24,53,2.9,7.6,0.914,9.4,0.525,9.1,0.368,0.5,70,4,45.5,7.3,80,56.37931034,1,0.4,109.8,CG,,,
players,Nassir,Little,PF,19,195.58,220,24,59,0.5,1.2,0.682,2.6,0.565,1.7,0.167,1.1,0,2.3,18.5,0.7,80,25,0.4,0.4,45,R,,,
players,CJ,McCollum,SG,28,190.5,190,24,53,1.9,2.1,0.811,12.7,0.483,6.8,0.374,0.8,30,3.6,54.5,3.7,80,24.46428571,0.8,0.9,108.6,HH,,,
players,Jusuf,Nurkic,C,25,213.36,290,24,68,2.3,5.1,0.773,11.1,0.523,0.4,0.103,3.4,35,7,8,3.2,80,44,1,1.4,82.2,IH,,,
players,Anfernee,Simons,SG,20,190.5,181,24,47,1,1.6,0.756,4.6,0.491,4.3,0.355,0.3,0,1.7,23,1.6,80,18.75,0.4,0.1,65.1,,,,
players,Anthony,Tolliver,PF,34,203.2,240,24,53,0.6,0.6,0.818,0.7,0.308,2.7,0.292,0.6,0,2.5,14,0.6,80,11.47058824,0.2,0.3,47.7,,,,
players,Gary,Trent Jr.,SG,21,195.58,209,24,56,0.3,0,0.6,1,0.333,2.2,0.423,0.3,0,1,5,0.4,80,22.61904762,0.3,0.2,25.8,,,,
players,Hassan,Whiteside,C,30,213.36,265,24,80,2,3.6,0.763,10.4,0.61,0,0,3.7,35,8.8,11,1.4,80,38.33333333,0.5,2.4,84.3,,,,
,,,,,,,,,,,,,,,,,,,,,,,,,,,,,
,,,,,,,,,,,,,,,,,,,,,,,,,,,,,
// Sacramento Kings,,,,,,,,,,,,,,,,,,,,,,,,,,,,,
,,,,,,,,,,,,,,,,,,,,,,,,,,,,,
players,Trevor,Ariza,SF,34,203.2,215,25,65,0.8,0.8,0.769,1.2,0.429,3.5,0.35,0.5,25,3.4,29,1.2,80,16.47058824,1.1,0.2,67.8,,,,
players,Marvin,Bagley III,PF,20,210.82,235,25,65,1,2.5,0.6,14,0.393,0.5,0,3,0,5,5,0,80,18.75,0.5,1,76.5,,,,
players,Harrison,Barnes,SF,27,203.2,225,25,53,1.6,4.7,0.796,8.1,0.513,3.7,0.352,1.1,30,4.2,23,2.3,80,25.09259259,0.9,0.2,106.2,PT,,,
players,Nemanja,Bjelica,PF,31,208.28,234,25,68,1.7,0.7,0.941,5.1,0.52,4.3,0.433,1.9,35,4.8,29,2.6,80,35.32258065,1,0.5,78.9,,,,
players,Bogdan,Bogdanovic,SG,27,198.12,220,25,59,1.8,2.3,0.68,5.5,0.458,7,0.373,0.3,30,2.5,32,4,80,25.09259259,1.2,0.1,82.5,,,,
players,Dewayne,Dedmon,C,30,213.36,245,25,68,1.5,0.6,0.846,2.6,0.564,2.3,0.229,1.2,0,2.8,12.5,0.4,80,8.333333333,0.4,0.5,43.5,,,,
players,Yogi,Ferrell,PG,26,182.88,178,25,53,0.7,1.6,0.871,3.1,0.532,1.6,0.29,0.2,0,1.1,14,1.8,80,18.26923077,0.5,0.1,42,,,,
players,De'Aaron,Fox,PG,22,190.5,185,25,56,4.1,6.9,0.71,10.9,0.459,3.3,0.333,0.6,0,3.4,51.5,7,80,21.59090909,0.8,0.6,96,CG,,,
players,Wenyen,Gabriel,PF,22,205.74,205,25,65,0.4,1.3,0.556,1.1,0.5,1.1,0.125,0.6,0,0.6,5,0.4,80,21.59090909,0.3,0.3,20.1,R,,,
players,Harry,Giles III,C,21,210.82,240,25,65,0.7,0.3,1,3.6,0.44,0,0.225,0.4,0,0.6,9.5,0.7,80,22.61904762,0.3,0.4,22.2,,,,
players,Buddy,Hield,SG,27,193.04,220,25,56,2.5,2.3,0.852,8.1,0.485,10.5,0.372,0.9,30,3.9,48.5,2.8,80,27.59259259,0.9,0.4,103.2,EX,,,
players,Richaun,Holmes,C,26,208.28,235,25,74,1,2.4,0.793,7.8,0.67,0,0.225,2.8,60,5.7,17,1,80,45.76923077,1.1,1.4,87.3,,,,
players,Justin,James,SG,23,200.66,190,25,62,0.5,0.5,0.167,2.7,0.5,1.3,0.214,0.2,0,1.6,23,0.8,80,18.15217391,0.4,0.5,38.1,R,,,
players,DaQuan,Jeffries,SG,22,195.58,230,25,35,0,0,0.6,0.5,1,0,0.25,0.5,0,0,5,0.5,80,21.59090909,0,0,16.5,R,,,
players,Cory,Joseph,PG,28,190.5,200,25,56,1.3,0.7,1,4.5,0.404,2,0.277,0.5,0,2,8,3.9,80,14.46428571,0.8,0.5,78.9,,,,
players,Caleb,Swanigan,PF,22,205.74,260,25,125,0.8,0.5,0.5,0.5,0.5,0,0.215,0.3,0,0.8,5,0,80,21.59090909,0.3,0.5,8.4,,,,
,,,,,,,,,,,,,,,,,,,,,,,,,,,,,
,,,,,,,,,,,,,,,,,,,,,,,,,,,,,
// San Antonio Spurs,,,,,,,,,,,,,,,,,,,,,,,,,,,,,
,,,,,,,,,,,,,,,,,,,,,,,,,,,,,
players,LaMarcus,Aldridge,C,34,210.82,250,26,56,1.6,3.5,0.838,13.4,0.53,1.6,0.364,2.1,35,4.9,11,2.4,80,26.47058824,0.6,1.8,98.7,HH,,,
players,Marco,Belinelli,SG,33,195.58,220,26,41,0.4,1,0.714,2.9,0.295,3,0.333,0,0,1.6,14,1.5,80,4.393939394,0.2,0,48.6,,,,
players,DeMarre,Carroll,SF,33,198.12,215,26,50,0.8,1.3,0.714,1.2,0.308,1.1,0.25,0.6,0,2,12.5,0.9,80,11.89393939,0.2,0.2,32.7,,,,
players,DeMar,DeRozan,SF,30,198.12,220,26,50,2.6,5.8,0.813,15.6,0.514,0.6,0.357,0.5,30,5.1,39.5,4.8,80,23.33333333,1,0.5,102.6,PT,,,
players,Drew,Eubanks,PF,22,205.74,245,26,53,1,0.3,1,2.5,0.5,0,0.2,1.3,0,2,5,0.5,80,21.59090909,0,0.3,23.4,,,,
players,Bryn,Forbes,SG,26,187.96,205,26,41,0.7,1.6,0.838,4.3,0.505,6.6,0.362,0.3,0,2.2,39.5,2,80,18.26923077,0.5,0,80.7,EX,,,
players,Rudy,Gay,PF,33,203.2,250,26,53,1.7,2.3,0.889,5.9,0.559,3.2,0.274,1.3,25,4.6,26,1.9,80,16.89393939,0.4,0.6,69.3,,,,
players,Keldon,Johnson,SF,20,195.58,220,26,26,0,0,0.7,1,0,0,0.25,0,0,0,5,0,80,23.75,0,0,6,R,,,
players,Trey,Lyles,PF,24,205.74,234,26,59,0.8,0.4,0.556,1.7,0.5,2.1,0.375,1.4,25,4.7,12.5,1.3,80,22.29166667,0.3,0.3,51.9,,,,
players,Chimezie,Metu,PF,22,205.74,225,26,59,0,0.7,0.5,2,0.583,0,0,1.2,25,0.7,9.5,0.3,80,24.09090909,0,0.3,10.5,,,,
players,Patty,Mills,PG,31,185.42,180,26,47,1,1.6,0.784,3.6,0.518,4.9,0.416,0.2,25,1.2,32,2.3,80,20.32258065,0.9,0.2,70.2,,,,
players,Dejounte,Murray,PG,23,193.04,180,26,68,2.3,2.4,0.787,7.1,0.5,1.3,0.192,1.3,30,4.8,41,4.1,80,28.15217391,1.6,0.3,67.8,CG,,,
players,Jakob,Poltl,C,24,215.9,245,26,68,0.9,1.5,0.559,4.4,0.594,0,0,2.3,35,3.7,12.5,1.5,80,34.79166667,0.6,1.3,56.7,,,,
players,Lonnie,Walker IV,SG,21,195.58,204,26,50,0.4,0.8,0.385,2.9,0.457,1,0.375,0.4,0,0.9,24.5,0.5,80,20.11904762,0.3,0.1,24,,,,
players,Derrick,White,SG,25,193.04,190,26,44,1.2,2.5,0.788,5,0.481,2.4,0.392,0.5,0,1.8,24.5,2.9,80,19,0.4,0.7,71.7,,,,
,,,,,,,,,,,,,,,,,,,,,,,,,,,,,
,,,,,,,,,,,,,,,,,,,,,,,,,,,,,
// Toronto Raptors,,,,,,,,,,,,,,,,,,,,,,,,,,,,,
,,,,,,,,,,,,,,,,,,,,,,,,,,,,,
players,OG,Anunoby,SF,22,200.66,232,27,86,1.2,1.4,0.606,5,0.588,3.8,0.398,1,35,4.6,33.5,1.7,80,44.09090909,1.3,1,90.3,,,,
players,Chris,Boucher,PF,27,205.74,200,27,89,0.4,1.4,0.69,2.7,0.526,1.6,0.324,2,30,2.2,9.5,0.5,80,25.09259259,0.3,0.7,35.7,,,,
players,Oshae,Brissett,SF,21,200.66,210,27,74,0.3,0,0.6,0.5,0,0.3,1,0,0,0.3,5,0.3,80,22.61904762,0.3,0,12.9,R,,,
players,Terence,Davis,SG,22,193.04,201,27,77,0.8,0.7,0.941,2.3,0.554,2.7,0.415,0.6,30,2.3,20,1.8,80,31.59090909,0.5,0.3,46.8,R,,,
players,Marc,Gasol,C,35,210.82,255,27,86,1.4,1.1,0.731,3,0.342,3.3,0.354,0.9,35,5.7,9.5,3.6,80,28.57142857,0.8,1.2,86.7,,,,
players,Dewan,Hernandez,C,23,208.28,235,27,149,0.3,0.7,1,1.3,0.25,0.3,0,0.7,0,1.7,15.5,0,80,20.65217391,0.3,0,9,,,,
players,Rondae,Hollis-Jefferson,SF,25,198.12,217,27,80,1.3,2.3,0.718,6.1,0.553,0.3,0.2,2.5,30,2.9,18.5,1.4,80,26.5,0.8,0.4,60.6,,,,
players,Serge,Ibaka,PF,30,213.36,235,27,86,2.1,2.5,0.829,8.2,0.461,2.5,0.343,1.7,0,5.1,20,1.3,80,13.33333333,0.4,0.9,66.3,,,,
players,Stanley,Johnson,SF,23,198.12,242,27,95,0.8,0,0.7,1,0.4,0.8,0.25,0.4,0,1,11,0,80,18.15217391,0.2,0,11.4,,,,
players,Kyle,Lowry,PG,33,182.88,196,27,74,3.1,5.7,0.905,5.3,0.507,8.2,0.346,0.6,35,4.2,84.5,6.8,80,29.39393939,1.2,0.4,111.6,CG,,,
players,Patrick,McCaw,SF,24,200.66,181,27,77,1.3,0.7,0.5,1.3,0.5,1,0.333,0.7,0,1.3,9.5,1,80,19.79166667,1,0,50.1,,,,
players,Malcolm,Miller,SF,26,200.66,210,27,68,0.2,0.6,0.167,0.2,0.5,1,0.5,0,0,0.7,5,0.4,80,18.26923077,0,0.2,17.1,,,,
players,Shamorie,Ponds,PG,21,182.88,175,27,83,0,0,0.7,1.5,0.667,0.5,0,0,0,0.5,20,1,80,22.61904762,0,0.5,12,R,,,
players,Norman,Powell,SG,26,190.5,215,27,77,1.7,2.7,0.828,5.5,0.571,4.8,0.36,0.5,30,3.3,59,1.5,80,28.26923077,1.1,0.3,84.9,,,,
players,Pascal,Siakam,PF,25,205.74,230,27,80,2.8,4.8,0.819,13.9,0.5,6.1,0.361,1.5,35,6.7,65,3.5,80,39,0.9,0.8,110.4,IH,,,
players,Matt,Thomas,SG,25,193.04,190,27,68,0.3,0.4,0.6,0.9,0.545,2.2,0.538,0.1,25,1,12.5,0.3,80,21.5,0.3,0,33.9,R,,,
players,Fred,VanVleet,PG,25,185.42,197,27,77,2.4,4.4,0.876,7.3,0.422,6.7,0.395,0.2,35,3.6,54.5,7,80,41.5,2,0.1,109.8,CG,,,
,,,,,,,,,,,,,,,,,,,,,,,,,,,,,
,,,,,,,,,,,,,,,,,,,,,,,,,,,,,
// Utah Jazz,,,,,,,,,,,,,,,,,,,,,,,,,,,,,
,,,,,,,,,,,,,,,,,,,,,,,,,,,,,
players,Bojan,Bogdanovic,SF,30,203.2,226,28,65,2.8,4,0.885,8.3,0.455,7,0.443,0.7,30,3.7,45.5,2,80,25.83333333,0.7,0.2,99.3,IH,,,
players,Tony,Bradley,C,22,208.28,248,28,83,0.4,0.9,0.688,3,0.611,0,0,1.4,25,2.1,9.5,0.3,80,24.09090909,0.1,0.4,27.3,,,,
players,Jarrell,Brantley,PF,23,195.58,250,28,128,0.5,0,0.6,0,0.45,0,0.2,0,0,2,5,0.5,80,20.65217391,0,1,13.5,R,,,
players,Mike,Conley,PG,32,185.42,175,28,65,2.1,3.5,0.795,7.4,0.365,5.1,0.374,0.8,25,2.7,26,4.6,80,17.34375,0.7,0.2,89.7,PT,,,
players,Ed,Davis,C,30,205.74,218,28,89,0.7,0.5,0.429,1.6,0.476,0,0,1.2,25,3.2,5,0.5,80,18.33333333,0.4,0.5,36.6,,,,
players,Dante,Exum,PG,24,195.58,214,28,68,0.9,0.2,1,1.5,0.471,0.5,0.333,0.3,0,0.8,8,0.6,80,17.29166667,0.1,0.2,22.5,,,,
players,Rudy,Gobert,C,27,215.9,258,28,92,2.3,5.6,0.612,8.2,0.683,0,0,3.5,65,10.1,14,1.4,80,50.09259259,0.8,1.8,102,IH,,,
players,Jeff,Green,PF,33,203.2,235,28,71,1,2.2,0.804,2.9,0.466,3.6,0.352,0.4,0,2.3,20,0.6,80,14.39393939,0.4,0.4,56.7,,,,
players,Joe,Ingles,PF,32,200.66,220,28,74,1.7,1.4,0.765,2.6,0.484,4.6,0.333,0.2,30,3.8,18.5,4.1,80,24.84375,1,0.1,84.6,,,,
players,Donovan,Mitchell,SG,23,185.42,215,28,71,2.4,5,0.841,14.5,0.481,6.2,0.364,0.9,35,3.9,26,3.7,80,38.15217391,1.2,0.3,103.8,CG,,,
players,Juwan,Morgan,PF,22,200.66,232,28,68,0.3,0,0.6,0,0.5,0,0.2,0,0,0.7,5,0,80,21.59090909,0,0,9,R,,,
players,Emmanuel,Mudiay,PG,23,190.5,200,28,71,1.7,1.4,0.806,4.5,0.52,1.5,0.324,0.3,0,2.3,14,2.4,80,20.65217391,0.3,0.3,48,,,,
players,Georges,Niang,PF,26,200.66,230,28,65,0.5,0.5,0.7,1.3,0.583,2.1,0.425,0.1,0,1.6,17,0.5,80,18.26923077,0.1,0.2,35.1,,,,
players,Royce,O'Neale,PF,26,193.04,226,28,74,0.8,0.6,0.857,1.7,0.476,2.8,0.443,0.1,35,4.5,23,2.6,80,35.76923077,0.8,0.2,85.2,,,,
players,Miye,Oni,SG,22,195.58,206,28,59,0.3,0,0.6,0,0.425,0,0.25,0,0,0.3,5,0,80,21.59090909,0,0,8.1,R,,,
players,Nigel,Williams-Goss,PG,25,187.96,190,28,62,0.1,0.3,1,0.6,0,0.1,0,0.1,0,0.1,5,0.3,80,19,0,0.1,9.3,R,,,
,,,,,,,,,,,,,,,,,,,,,,,,,,,,,
,,,,,,,,,,,,,,,,,,,,,,,,,,,,,
// Washington Wizards,,,,,,,,,,,,,,,,,,,,,,,,,,,,,
,,,,,,,,,,,,,,,,,,,,,,,,,,,,,
players,Bradley,Beal,SG,26,190.5,207,29,32,3.5,7.1,0.835,13.5,0.514,7.7,0.33,1,35,3.5,51.5,7,80,30.76923077,0.9,0.3,111,CG,,,
players,Davis,Bertans,PF,27,208.28,225,29,38,0.6,1.4,0.875,2.4,0.509,8.6,0.465,1,35,3.7,41,1.6,80,37.59259259,0.6,0.6,86.7,EX,,,
players,Isaac,Bonga,SF,20,203.2,180,29,41,0.6,0.7,0.769,2.1,0.568,0.8,0.267,0.7,25,1.8,18.5,1.3,80,26.25,0.7,0.2,46.5,,,,
players,Troy,Brown Jr.,SF,20,198.12,215,29,53,1,1.3,0.76,4.9,0.526,1.8,0.25,1.4,25,3.9,20,2.2,80,28.75,1.4,0.2,66.3,,,,
players,Thomas,Bryant,C,22,208.28,248,29,44,1.3,2.9,0.736,8.3,0.611,1.9,0.286,2.3,30,6.2,24.5,2.7,80,31.59090909,0.4,1,85.2,,,,
players,Chris,Chiozza,PG,24,180.34,175,29,53,0.8,0,0.8,1.9,0.118,1.2,0.455,0,0,1.2,18.5,2.9,80,17.29166667,0.9,0.2,34.8,,,,
players,Rui,Hachimura,PF,21,203.2,230,29,38,0.8,2.2,0.863,10.6,0.533,2,0.2,1.7,0,4.4,30.5,1.7,80,17.61904762,0.8,0.1,89.1,R,,,
players,Ian,Mahinmi,C,33,210.82,262,29,53,1.3,3.3,0.7,4.3,0.692,0.3,0,2,0,2.7,5,0.7,80,14.39393939,0.3,1.7,51,,,,
players,Garrison,Mathews,SG,23,195.58,215,29,23,0.5,0,0.7,0,0.425,1,0,0,0,0.5,5,1,80,20.65217391,0,0,21,,,,
players,Jordan,McRae,SG,28,195.58,179,29,41,1.1,1.5,0.895,4.5,0.517,2.5,0.394,0.2,0,2.2,9.5,2.8,80,16.96428571,0.6,0.3,54.3,,,,
players,C.J.,Miles,SG,32,198.12,220,29,44,0.4,2,0.75,2.4,0.333,3.5,0.314,0.4,0,0.8,14,1.2,80,14.84375,1,0.4,48.3,,,,
players,Justin,Robinson,PG,22,185.42,195,29,29,0.4,0,0.6,0.8,0.25,0.2,1,0.2,0,0.4,5,0.4,80,21.59090909,0,0,8.4,R,,,
players,Admiral,Schofield,SF,22,195.58,241,29,26,0.3,0.4,1,0.3,1,0.9,0.444,0.2,0,0.9,8,0.1,80,19.09090909,0,0,22.8,R,,,
players,Ish,Smith,PG,31,182.88,175,29,35,1.2,0.8,0.632,6.2,0.486,2.5,0.362,0.5,0,2.3,20,4.3,80,12.82258065,0.7,0.3,75.9,,,,
players,Isaiah,Thomas,PG,30,175.26,185,29,29,2.2,1.2,0.8,5.9,0.475,4.9,0.41,0.2,0,1.6,14,5.1,80,10.83333333,0.5,0.2,74.7,,,,
players,Moritz,Wagner,C,22,210.82,245,29,50,2,2,0.837,5,0.683,2.7,0.393,1.6,30,4.4,11,1.3,80,29.09090909,0.7,0.6,61.2,,,,
players,John,Wall,PG,29,193.04,210,29,59,3.8,5.7,0.714,12.1,0.467,4.6,0.336,0.5,30,3.1,57.5,9.2,80,23.87931034,1.5,1,103.2,CG,,,
,,,,,,,,,,,,,,,,,,,,,,,,,,,,,
,,,,,,,,,,,,,,,,,,,,,,,,,,,,,
// FREE AGENTS,,,,,,,,,,,,,,,,,,,,,,,,,,,,,
,,,,,,,,,,,,,,,,,,,,,,,,,,,,,
players,Alex,Abrines,SG,24.9,198.12,190,-1,57,0.3,0.6,0.848,0.9,0.443,2.9,0.38,0.3,60,1.2,33,0.4,75,66,0.5,0.1,91,,,,
players,Quincy,Acy,PF,27.7,200.66,233,-1,57,0.9,0.9,0.817,1,0.384,4.2,0.349,0.6,60,3.1,31,0.8,75,61,0.5,0.4,85,,,,
players,Arron,Afflalo,SG,32.7,195.58,215,-1,65,0.6,1,0.882,3.2,0.446,1.9,0.403,0.1,60,1.6,31,0.9,75,51,0.2,0.1,64,,,,
players,Alexis,Ajinca,C,30.2,213.36,220,-1,81,0.8,0.5,0.725,2.25,0.511,0.05,0,1.2,55,3.4,28,0.3,75,53,0.5,0.6,40,,,,
players,Cole,Aldrich,C,29.7,210.82,245,-1,69,1.1,1.4,0.738,3.8,0.527,0,0,1.4,60,3.4,31,0.8,75,57,0.8,1.1,52,,,,
players,Rawle,Alkins,SG,20,195.58,217,-1,63,1.33,0.665,0.625,4.33,0.343,2.5,0.429,1.67,50,3,47,1.25,75,71,0.65,0.335,56,R,,,
players,Ike,Anigbogu,C,19.7,208.28,252,-1,81,0.4,1,0.833,1.6,0.444,0,0,1,45,0.8,33,0,75,69,0.2,0.6,50,,,,
players,Kostas,Antetokounmpo,SF,20.1,208.28,195,-1,50,1.3,2.2,0.516,3,0.601,0.5,0.133,0.8,65,2,36,0.4,75,78,0.2,1.1,71,R,,,
players,Carmelo,Anthony,SF,34.1,203.2,230,-1,46,1.3,2.5,0.767,8.9,0.437,6.1,0.357,0.9,90,4.9,50,1.3,75,63,0.6,0.6,95,HF,,,
players,Darrell,Arthur,PF,30.3,205.74,225,-1,61,0.8,0.2,0.667,1.3,0.583,1.2,0.348,0.2,60,0.6,36,0.5,75,55,0.4,0.2,50,,,,
players,Jamel,Artis,SF,25.5,200.66,213,-1,41,0.5,0.8,0.583,3.3,0.46,1.9,0.276,0.3,50,2.3,32,1.2,75,60,0.1,0.2,60,,,,
players,Omer,Asik,C,32,213.36,255,-1,57,0.5,0.7,0.308,1.2,0.409,0,0,0.5,60,2.1,25,0.2,75,52,0.1,0.2,50,IH,,,
players,Luke,Babbitt,SF,29,205.74,225,-1,41,0.4,0.4,0.773,1.2,0.525,3.1,0.385,0.1,60,1.8,28,0.6,75,58,0.2,0.1,61,,,,
players,Ron,Baker,SG,25.3,193.04,220,-1,61,0.6,0.9,0.769,0.9,0.346,1.1,0.333,0.2,60,0.9,29,1.6,75,65,0.9,0.2,60,,,,
players,Wade,Baldwin IV,PG,22.3,193.04,202,-1,61,1.2,1.4,0.787,2.3,0.625,0.7,0.259,0.1,50,1,56,0.7,75,66,0.3,0.1,65,,,,
players,Michael,Beasley,PF,29.5,208.28,235,-1,57,1.9,2.1,0.78,9.7,0.52,1.2,0.395,1.3,70,4.3,41,1.7,75,62,0.5,0.6,90,EX,,,
players,Jabari,Bird,SG,24,198.12,198,-1,72,0.6,1,0.579,2.25,0.632,1,0.429,0.75,60,1.5,47,1.6,75,68,0.4,0.1,65,,,,
players,Tarik,Black,PF,26.6,205.74,253,-1,89,0.7,1.2,0.582,2.3,0.638,0.2,0.091,1.2,60,2,26,0.3,75,63,0.4,0.6,62,,,,
players,Trevon,Bluiett,SG,23.7,198.12,215,-1,50,1.25,1,0.75,2.25,0.611,7,0.454,0.5,50,3,45,2.25,75,64,0.25,0.5,60,R,,,
players,Trevor,Booker,PF,30.6,203.2,240,-1,65,0.9,1.4,0.71,4.6,0.545,0.5,0.305,1.7,75,3,28,1.2,75,62,0.4,0.3,83,,,,
players,Isaiah,Briscoe,PG,22,190.5,210,-1,67,2.2,1.95,0.555,7.9,0.396,1.4,0.23,0.75,45,1.95,59,2.5,75,70,0.45,0.1,60,R,,,
players,Aaron,Brooks,PG,33.5,182.88,161,-1,45,0.8,0.5,0.784,2.2,0.429,1.6,0.371,0.3,65,0.6,39,1.5,75,52,0.3,0.1,78,,,,
players,MarShon,Brooks,SG,29.4,195.58,200,-1,53,2.3,1.65,0.87,5,0.457,2.3,0.594,1.1,60,1.9,57,2,75,57,0.9,0.4,85,EX,,,
players,Anthony,Brown,SF,25.7,200.66,215,-1,45,0.5,0.5,0.85,1.9,0.38,2.4,0.286,0.4,50,2.1,42,0.7,75,60,0.5,0.1,60,,,,
players,Markel,Brown,SG,26.5,190.5,190,-1,52,0.8,1.4,0.755,3.1,0.443,1.9,0.31,0.4,55,1.6,47,1.4,75,61,0.6,0.2,60,,,,
players,Lorenzo,Brown,PG,27.9,195.58,195,-1,65,2.6,0.5,0.684,5.7,0.466,3.1,0.289,0.3,50,3.6,25,3.4,75,55,1.3,0,55,,,,
players,Anthony,Brown,SF,25.7,200.66,215,-1,45,0.5,0.5,0.85,1.9,0.38,2.4,0.286,0.4,50,2.1,42,0.7,75,60,0.5,0.1,60,,,,
players,Markel,Brown,SG,26.5,190.5,190,-1,52,0.8,1.4,0.755,3.1,0.443,1.9,0.31,0.4,55,1.6,47,1.4,75,61,0.6,0.2,60,,,,
players,Dwight,Buycks,PG,29.3,190.5,190,-1,61,1.3,1.4,0.878,5.3,0.438,1.6,0.333,0.4,50,1,36,2,75,52,0.7,0.1,60,,,,
players,Omri,Casspi,SF,30,205.74,225,-1,69,0.7,1.3,0.725,3.5,0.595,0.4,0.455,0.6,65,3.2,36,1,75,59,0.3,0.4,64,IH,,,
players,Mario,Chalmers,PG,32.1,185.42,190,-1,57,1.8,2.1,0.855,3.8,0.456,2.9,0.351,0.2,75,2.2,38,3,75,59,1.2,0.2,80,,,,
players,Antonius,Cleveland,SG,24.4,198.12,195,-1,69,0.4,0.4,0.667,2,0.379,1.2,0.275,0.2,40,1,31,0.1,75,57,0.4,0.3,60,,,,
players,Kyle,Collinsworth,PG,26.7,198.12,210,-1,65,0.8,1.3,0.525,2.6,0.415,0.5,0.235,1,50,2.3,29,1.8,75,58,0.5,0.3,60,,,,
players,Jack,Cooley,PF,27.2,205.74,246,-1,45,0.4,2.7,0.737,3.9,0.481,0,0,2,50,2.3,26,0.9,75,57,0.3,0.1,40,,,,
players,Matt,Costello,PF,24.9,205.74,245,-1,58,1.38,1.85,0.667,5.16,0.537,1.38,0.111,2.15,50,4.92,27,1.77,75,61,1,0.85,50,,,,
players,Jordan,Crawford,SG,29.7,195.58,195,-1,45,1,0.2,0.826,2.6,0.458,2.8,0.317,0.4,70,0.4,29,2.6,75,62,0.2,0.2,60,,,,
players,Malcolm,Delaney,PG,29.3,190.5,190,-1,45,1.2,1.7,0.804,3,0.391,2.3,0.371,0.2,65,1.7,35,3,75,60,0.6,0.1,66,,,,
players,Angel,Delgado,C,23.7,208.28,230,-1,60,1.2,2,0.539,5,0.56,0,0,1.8,50,1.3,33,0.7,75,64,0.7,0.2,83,R,,,
players,P.J.,Dozier,PG,21.7,198.12,200,-1,71,1.8,0.71,0.4,5.71,0.501,1.29,0.556,0.43,50,2.71,42,1.71,75,68,1,0.29,60,,,,
players,Trevon,Duval,PG,19,190.5,195,-1,65,2.4,1.3,0.692,6,0.367,1.2,0.333,0,50,1.8,53,1.6,75,73,0.6,0.2,90,R,,,
players,Vince,Edwards,SF,22.2,203.2,225,-1,64,2.4,1.13,0.833,2.37,0.486,1.23,0.367,0.75,50,4,42,2.2,75,67,0.5,0.6,85,R,,,
players,Tyler,Ennis,PG,23.9,190.5,182,-1,65,0.7,0.5,0.759,3.1,0.476,1,0.317,0.4,60,1.4,34,1.9,75,68,0.6,0.2,66,,,,
players,Keenan,Evans,PG,21,190.5,183,-1,75,3.8,1.675,0.817,1.825,0.517,1.05,0.32,0.3,50,2.7,47,1.6,75,69,0.55,0.3,88,R,,,
players,Jawun,Evans,PG,21.9,185.42,185,-1,53,0.9,1,0.776,4.1,0.42,1.1,0.3,0.2,50,1.6,41,2.1,75,67,0.8,0.1,65,,,,
players,Kay,Felder,PG,23.3,175.26,177,-1,45,1,0.8,0.754,4.2,0.385,1.7,0.318,0.2,50,0.9,35,2.3,75,64,0.2,0.1,60,,,,
players,Marcus,Georges-Hunt,SG,24.3,195.58,218,-1,33,1,1,0.71,1.6,0.515,0.8,0.294,0.4,50,0.4,36,0.4,75,62,0.2,0,51,,,,
players,Jonathan,Gibson,PG,30.7,187.96,185,-1,53,0.8,0,0.724,2.8,0.459,3,0.368,0.1,50,1.1,40,1.4,75,50,0.4,0,50,,,,
players,Marcin,Gortat,C,34.4,210.82,240,-1,69,1.2,2,0.675,6.8,0.518,0,0,2.2,70,5.4,29,1.8,75,52,0.5,0.7,100,IH,,,
players,Rob,Gray Jr.,PG,24,185.42,185,-1,73,2.8,1.16,0.802,1.88,0.444,1,0.319,0.7,50,1.5,47,2.2,75,63,0.55,0.1,83,R,,,
players,Devon,Hall,SG,23,198.12,205,-1,70,1,1.25,0.894,2.35,0.45,1.95,0.4,0.4,60,2.4,47,1.55,75,70,0.45,0.05,40,R,,,
players,Daniel,Hamilton,SF,22.9,203.2,197,-1,43,3.8,2.4,0.744,6.36,0.349,2.57,0.222,1.07,50,4.57,53,4.86,75,65,0.64,0.07,60,,,,
players,Aaron,Harrison,SG,23.7,198.12,210,-1,57,0.3,1.9,0.765,2.9,0.385,4.8,0.209,0.4,50,2.2,40,1.2,75,64,1,0.2,50,,,,
players,Andrew,Harrison,PG,23.7,198.12,210,-1,45,1.4,2.8,0.78,5.1,0.467,2.5,0.331,0.4,65,1.9,41,3.2,75,71,0.7,0.5,68,,,,
players,Aaron,Harrison,SG,23.7,198.12,210,-1,57,0.3,1.9,0.765,2.9,0.385,4.8,0.209,0.4,50,2.2,40,1.2,75,64,1,0.2,50,,,,
players,Nigel,Hayes,PF,23.5,203.2,254,-1,49,0.2,0.3,0.7,2.4,0.412,1.8,0.289,0.4,50,2,32,0.7,75,64,0.4,0.6,50,,,,
players,Reggie,Hearn,PG,26.9,193.04,210,-1,43,1.7,0.5,0.65,0,0.4,4,0.35,0.2,50,2.5,36,1.75,75,57,0.5,0.2,50,,,,
players,Myke,Henry,SF,25.5,198.12,225,-1,69,1,0.5,0.767,2.6,0.431,2.9,0.328,0.5,40,1.4,38,1.1,75,55,1.6,0.3,60,,,,
players,Kevin,Hervey,SF,22,203.2,230,-1,65,3.2,2.1,0.807,4.8,0.472,3.45,0.289,1.5,50,3.1,47,1.1,75,67,0.6,0.3,40,R,,,
players,Isaiah,Hicks,PF,23.9,205.74,220,-1,45,2.4,1.35,0.667,7.5,0.492,1.4,0.222,1.5,50,4.6,33,1.2,75,63,0.3,0.6,60,,,,
players,Tryggvi,Hlinason,C,20,213.36,260,-1,52,0.46,0.68,0.474,1.79,0.69,0,0,1.32,40,2.68,33,0.14,75,66,0.25,0.39,73,R,,,
players,John,Holland,SG,29.7,195.58,205,-1,49,0.3,0.5,0.692,1,0.333,1.5,0.4,0.3,50,0.8,42,0.2,75,52,0.3,0.1,65,,,,
players,Josh,Huestis,SF,26.5,200.66,230,-1,61,0.4,0.3,0.286,1,0.419,1.7,0.294,0.6,55,1.7,29,0.3,75,61,0.2,0.6,84,,,,
players,R.J.,Hunter,SG,24.7,198.12,190,-1,57,0.4,0.4,0.889,1.2,0.512,2.8,0.282,0,50,1,42,0.6,75,62,0.6,0.1,55,,,,
players,Andre,Ingram,PG,32.6,190.5,195,-1,49,1.5,1.5,0.847,4,0.375,4.5,0.461,0.5,70,1.25,70,3.5,75,56,0.5,0.5,65,,,,
players,Jarrett,Jack,PG,34.7,190.5,202,-1,41,1.9,1.2,0.84,5.8,0.459,1.4,0.291,0.4,65,2.7,40,5.6,75,49,0.6,0.1,76,,,,
players,Aaron,Jackson,PG,32.2,193.04,185,-1,40,2,2,0.769,2.5,0.4,2,0.25,0.25,50,1,36,1,75,47,0.2,0,60,,,,
players,Demetrius,Jackson,PG,23.8,185.42,194,-1,77,2.25,0.6,0.6,5,0.545,3.2,0.25,0.8,50,1.7,28,3.1,75,63,0.7,0.5,60,,,,
players,Justin,Jackson,SF,21.4,200.66,230,-1,75,3.4,1.3,0.828,2.75,0.393,1.8,0.25,2,50,2.8,45,0.95,75,68,0.4,0.4,54,R,,,
players,Al,Jefferson,C,33.5,208.28,265,-1,51,0.6,1,0.833,5.7,0.541,0.1,0.121,2.2,75,3.1,27,0.8,75,57,0.4,0.6,44,,,,
players,Richard,Jefferson,SF,38,200.66,222,-1,45,0.6,1.2,0.73,1.8,0.571,1.9,0.332,0.3,65,1.9,36,0.9,75,43,0.3,0.1,60,,,,
players,Amile,Jefferson,PF,25.2,205.74,225,-1,74,1,1.9,0.421,5.6,0.411,0,0,3.4,50,4.7,31,0.5,75,61,0.8,0.8,50,R,,,
players,Brandon,Jennings,PG,28.8,185.42,169,-1,53,1.3,0.7,0.796,3,0.462,2.4,0.345,0.4,75,1.9,53,4.9,75,66,0.9,0,85,SP,,,
players,Joe,Johnson,SG,37,203.2,225,-1,61,0.9,0.8,0.889,3.9,0.493,2.6,0.371,0.3,80,2.9,32,1.5,75,52,0.3,0.1,67,HF,,,
players,Omari,Johnson,PF,28.1,205.74,220,-1,51,0.8,0,0.703,2.3,0.556,3,0.333,1,50,1.8,44,1.8,75,55,0.5,0,60,,,,
players,Dakari,Johnson,C,22.8,213.36,255,-1,57,0.1,0.6,0.55,1.3,0.564,0,0,0.5,50,0.6,31,0.3,75,65,0.2,0.3,50,,,,
players,Jalen,Jones,SF,25.1,200.66,220,-1,57,0.4,1.2,0.632,2.6,0.431,1.6,0.385,0.8,50,1.6,34,0.3,75,61,0.3,0.1,60,,,,
players,Sean,Kilpatrick,SG,28.5,193.04,210,-1,45,0.7,1.4,0.889,2.9,0.427,2.8,0.319,0.1,60,1.6,41,0.9,75,59,0.3,0.1,63,,,,
players,George,King,SF,24.5,198.12,24.5,-1,60,3.2,0.9,0.782,1.7,0.444,1.63,0.325,0.9,45,3.05,45,1.1,75,60,0.5,0.35,78,R,,,
players,Arnoldas,Kulboka,SF,20.5,208.28,220,-1,31,1.38,0.9,0.864,1.535,0.414,2.2,0.374,0.49,40,3.53,36,0.82,75,65,0.87,0.18,73,R,,,
players,Shane,Larkin,PG,25.8,180.34,176,-1,63,1.5,1.7,0.865,6.2,0.398,4,0.36,0.7,60,3.6,31,4.6,75,64,1.3,0.1,66,,,,
players,Ty,Lawson,PG,30.7,180.34,195,-1,45,1.9,3.1,0.797,5.9,0.502,1.7,0.288,0.6,70,2,59,4.8,75,60,1.1,0.1,60,CG,,,
players,Damion,Lee,SG,25.7,198.12,210,-1,57,2.7,1.9,0.759,6.1,0.511,4,0.25,0.35,45,2,53,1.9,75,57,1.3,0.1,60,,,,
players,DeAndre,Liggins,SG,30.3,198.12,209,-1,71,0.3,0.2,0.549,1.8,0.396,1.8,0.358,0.2,55,2.4,31,0.8,75,53,0.6,0.2,71,,,,
players,Josh,Magette,PG,28.6,185.42,160,-1,45,1.5,1.3,0.8,2,0.584,3.7,0.364,0.15,50,1.4,27,4.75,75,54,1.3,0.2,50,,,,
players,Luc,Mbah a Moute,PF,31.8,203.2,230,-1,73,1.1,1.6,0.684,2.8,0.599,2.8,0.364,0.4,65,2.7,44,0.9,75,55,1.2,0.4,74,,,,
players,Brandon,McCoy,C,20,213.36,250,-1,68,2.8,1.45,0.725,2.825,0.55,0.075,0.333,1.03,50,2.4,36,0.5,75,71,0.5,0.9,80,R,,,
players,Erik,McCree,SF,24.5,203.2,225,-1,56,1,0,0.734,3.34,0.453,4,0.384,0.67,50,0.67,47,1.33,75,62,0.33,0,50,,,,
players,Chris,McCullough,PF,23.4,208.28,220,-1,65,0.6,1,0.548,3.1,0.47,1.4,0.306,1,50,1.8,42,0.4,75,64,1.2,0.5,60,,,,
players,Ben,McLemore III,SG,25.4,195.58,195,-1,49,1.1,1.1,0.828,3.8,0.477,2.8,0.346,0.6,65,1.9,41,0.9,75,68,0.7,0.3,68,,,,
players,Jordan,Mickey,PF,24,203.2,235,-1,57,0.8,0.8,0.684,2.9,0.561,0.7,0.275,0.8,50,2.8,28,0.4,75,63,0.3,0.4,55,,,,
players,Shake,Milton,PG,21.8,198.12,205,-1,66,2.8,1.25,0.847,1.65,0.412,1.475,0.384,0.6,50,2,47,3.3,75,67,0.7,0.3,54,R,,,
players,Naz,Mitrou-Long,PG,25,193.04,218,-1,66,1.88,0.38,0.714,2.37,0.593,5.25,0.297,0.12,50,3.5,36,1.38,75,61,0.38,0.12,65,,,,
players,Ben,Moore,SF,23.1,203.2,205,-1,66,2.4,1.85,0.663,7,0.466,0.1,0.2,1.3,50,2.6,47,1.2,75,65,0.45,0.55,50,,,,
players,Eric,Moreland,PF,26.5,208.28,218,-1,73,0.6,0.4,0.379,1.8,0.541,0,0,1.2,50,2.9,33,1.2,75,58,0.5,0.8,82,,,,
players,Jaylen,Morris,SG,22.8,195.58,185,-1,45,1,0,0.5,3.7,0.5,1.7,0.2,0.3,40,2.3,34,1.2,75,60,0.3,0.2,60,,,,
players,Johnathan,Motley,PF,23.2,208.28,230,-1,57,0.8,2.5,0.536,6.3,0.565,0.5,0.167,1.3,55,3.2,35,0.6,75,67,0.3,0.2,65,,,,
players,Timofey,Mozgov,C,32,215.9,250,-1,57,1.1,1,0.767,2.4,0.64,0.6,0.222,1,65,2.1,29,0.4,75,55,0.2,0.4,50,IH,,,
players,Shabazz,Muhammad,SG,25.6,198.12,225,-1,33,0.7,2.4,0.774,5.8,0.528,1.9,0.338,1.1,65,1.7,44,0.4,75,67,0.3,0.1,52,EX,,,
players,Jameer,Nelson,PG,36.4,182.88,190,-1,49,2.4,0.7,0.8,4.3,0.45,4.4,0.331,0.5,60,3.2,35,6.4,75,43,1,0.1,61,,,,
players,Malik,Newman,SG,21,190.5,190,-1,47,2,0,0.835,2.75,0.425,2.77,0.365,0.33,55,0.75,47,0.45,75,72,0.33,0,95,R,,,
players,Lucas,Nogueira,C,25.9,213.36,220,-1,93,1.5,1.15,0.663,4.6,0.644,0.35,0.258,2.4,50,5.5,28,1.5,75,59,0.9,1.6,60,,,,
players,Emeka,Okafor,C,35.8,210.82,260,-1,77,0.5,0.8,0.818,3.7,0.505,0,0,1.8,65,2.8,31,0.3,75,47,0.3,1,65,,,,
players,Chinanu,Onuaku,C,21.7,208.28,245,-1,65,1.2,0.7,0.527,2,0.583,0,0,0.5,50,3,47,0.7,75,68,0.5,0.2,55,,,,
players,Marcus,Paige,PG,24.8,185.42,175,-1,41,2.5,0.8,0.825,2.4,0.365,3.2,0.375,0,50,0.8,47,2.4,75,61,0.25,0,60,,,,
players,Georgios,Papagiannis,C,21,218.44,240,-1,69,0.5,0,0.857,2.5,0.521,0,0,0.8,50,1.4,31,0.5,75,69,0.2,0.4,50,,,,
players,Justin,Patton,C,21.1,213.36,230,-1,89,2.2,0.625,0.517,2,0.683,0.1,0.3,1.2,50,4,51,0.6,75,69,0.45,0.7,50,,,,
players,Brandon,Paul,SG,27.2,193.04,205,-1,77,0.5,0.7,0.512,1.1,0.548,0.8,0.278,0.1,45,1,31,0.6,75,54,0.4,0.1,78,,,,
players,Cameron,Payne,PG,23.9,187.96,180,-1,53,1.4,0.6,0.75,5,0.419,3.6,0.385,0.7,60,2,46,4.5,75,68,1,0.4,50,,,,
players,Gary,Payton II,PG,25.6,187.96,190,-1,57,0.3,0.4,0.707,2.1,0.607,1.1,0.292,0.6,50,1.3,36,0.9,75,60,0.3,0.1,50,,,,
players,Kendrick,Perkins,C,33.6,208.28,280,-1,53,1.1,0.7,0.444,2,0.532,0,0,0.7,65,2.7,36,0.9,75,51,0.3,0.3,40,,,,
players,Alec,Peters,PF,23.2,205.74,232,-1,33,0.2,0.5,0.8,0.8,0.625,2.9,0.31,0.4,50,1.5,33,0.6,75,65,0.1,0.1,50,,,,
players,Marshall,Plumlee,C,26,215.9,250,-1,53,2.4,2.7,0.571,5.4,0.515,0,0,2.2,50,3.3,31,0.95,75,59,0.3,0.4,40,,,,
players,Alex,Poythress,SF,24.8,200.66,245,-1,57,0.2,0,0.7,1.2,0.467,0.8,0.364,0.6,50,0.8,44,0.2,75,61,0.2,0,60,,,,
players,Billy,Preston,PF,20.7,208.28,240,-1,45,0.67,2,0.833,4.5,0.425,1.5,0.3,1,40,3,36,0.5,75,65,0.335,0.333,61,R,,,
players,Rodney,Purvis,SG,24.4,193.04,205,-1,37,0.6,0.9,0.867,3.4,0.4,3.3,0.25,0.1,45,1.6,43,1.1,75,60,0.2,0.2,65,,,,
players,Zhou,Qi,C,22.5,218.44,218,-1,69,0.6,1.4,0.667,1.4,0.5,2.2,0.226,1.5,50,4.5,33,0.2,75,66,0.5,1.6,55,,,,
players,Zach,Randolph,PF,37,205.74,253,-1,53,2,1.8,0.785,10.4,0.503,2.5,0.347,1.6,85,5.1,33,2.2,75,55,0.7,0.2,72,,,,
players,Davon,Reed,SG,23.1,198.12,220,-1,49,0.5,0.6,0.667,1.8,0.289,1.8,0.289,0.1,50,1.8,34,0.6,75,65,0.5,0.1,60,,,,
players,Malachi,Richardson,SG,22.5,198.12,199,-1,41,0.4,0.8,0.773,1.9,0.422,1.5,0.3,0.2,55,1.1,31,0.5,75,69,0.4,0,64,,,,
players,Devin,Robinson,PF,23.3,203.2,200,-1,75,2.2,2.2,0.767,2.8,0.508,1.6,0.259,1.2,60,3.8,56,0.4,75,69,0.8,1.2,60,,,,
players,Issuf,Sanon,SG,18.7,193.04,185,-1,74,0.98,0.67,0.467,2.09,0.593,1.93,0.253,0.42,40,1.38,42,1.13,75,69,0.98,0.2,73,R,,,
players,Ramon,Session,PG,32.2,190.5,190,-1,49,1.1,2,0.772,3.3,0.374,0.9,0.308,0.2,60,1.1,31,2.8,75,52,0.5,0.1,68,,,,
players,Kobi,Simmons,PG,21,185.42,170,-1,47,1.4,0.8,0.842,4.7,0.46,1.2,0.282,0.4,50,1.1,44,2.1,75,69,0.6,0.2,85,,,,
players,Kyle,Singler,SF,30.2,203.2,230,-1,53,0.3,1.1,0.538,1.3,0.313,0.4,0.4,0.1,50,0.8,31,0.2,75,51,0.1,0,40,,,,
players,Jason,Smith,PF,32.3,213.36,240,-1,57,0.5,0.6,0.905,2.5,0.494,1,0.332,0.5,65,2.6,28,0.4,75,54,0.1,0.4,60,,,,
players,David,Stockton,PG,27,180.34,165,-1,45,0.3,1.3,0.909,0,0,1,0.424,0.1,45,0.3,36,0.4,75,55,0.1,0,60,,,,
players,Julyan,Stone,SG,29.6,198.12,200,-1,57,0.3,0.1,0.7,0.4,0.581,0.6,0.462,0,50,1.2,36,1.1,75,52,0.2,0.1,56,,,,
players,Isaiah,Taylor,PG,24,190.5,170,-1,41,1.3,2.1,0.702,4.6,0.461,1.2,0.25,0.3,50,1.1,41,3.1,75,63,0.5,0.1,82,,,,
players,Milos,Teodosic,PG,31.3,195.58,196,-1,41,2.2,1,0.848,2.8,0.492,5.2,0.379,0.4,60,2.4,37,4.6,75,53,0.5,0.1,55,,,,
players,Jared,Terrell,SG,23.4,190.5,215,-1,60,1.4,0.2,0.763,3,0.533,2,0.315,0.8,40,2.4,45,1.2,75,59,0.6,0,83,R,,,
players,Jason,Terry,PG,40.8,187.96,180,-1,40,1.1,0.4,0.889,1.7,0.487,5.1,0.348,0.2,75,1.9,35,2.6,75,42,0.4,0,62,HF,,,
players,Tyler,Ulis,PG,22.5,177.8,150,-1,37,1.8,1.4,0.832,5.7,0.425,2.1,0.288,0.3,65,1.5,38,4.4,75,74,1,0.1,87,,,,
players,Travis,Wear,SF,27.8,208.28,230,-1,61,0.4,0.5,0.824,1.5,0.397,2.8,0.364,0.6,50,2.2,36,0.4,75,55,0.2,0.3,50,,,,
players,James,Webb III,PF,24.9,205.74,202,-1,41,1.2,0,0.7,1.5,0.4,5.7,0.311,2.4,50,4.8,32,1.2,75,61,0.3,0,50,,,,
players,Thomas,Welsh,C,22.4,213.36,255,-1,62,1.7,0.9,0.828,3.35,0.511,1.7,0.347,1.4,50,6,33,0.9,75,66,0.7,0.9,80,R,,,
players,David,West,PF,37.8,205.74,240,-1,85,1.1,1.1,0.759,5.1,0.576,0.1,0.375,0.9,65,2.4,32,1.9,75,43,0.6,1,89,HF,,,
players,Andrew,White,SF,25,200.66,210,-1,45,0.5,0.3,0.75,1.6,0.584,3.3,0.367,0.3,50,2,35,0.4,75,61,0.2,0.1,50,,,,
players,Okaro,White,SF,25.9,203.2,205,-1,57,0.2,0.5,0.88,0.8,0.6,1.8,0.364,0.5,50,1.3,34,0.3,75,59,0.2,0.2,50,,,,
players,Isaiah,Whitehead,PG,23.3,193.04,210,-1,57,1.5,1.2,0.788,4.3,0.485,1.1,0.389,0.3,50,1.4,36,1.3,75,64,0.5,0.1,65,,,,
players,C.J.,Wilcox,SG,27.5,195.58,201,-1,60,1,2,0.8,1.6,0.5,3.4,0.419,0,50,2,37,1,75,56,0.545,0.27,60,,,,
players,Alan,Williams,PF,25.4,203.2,260,-1,73,0.8,2.3,0.628,5.5,0.511,0,0,1.9,60,4.2,33,0.6,75,65,0.6,0.6,65,,,,
players,C.J.,Williams,SG,28.4,195.58,225,-1,53,0.5,0.4,0.813,3.1,0.546,2.1,0.282,0.3,50,1.2,42,1.1,75,54,0.8,0.3,65,,,,
players,Nick,Young,SF,33.1,200.66,200,-1,49,0.5,0.8,0.862,2,0.481,4.1,0.377,0.3,70,1.3,40,0.5,75,55,0.5,0.1,98,SP,,,
players,Joe,Young,SG,26,187.96,180,-1,49,0.5,0.5,0.759,2.3,0.458,1.2,0.379,0.2,50,1,34,0.7,75,59,0.3,0,65,,,,
players,Tyler,Zeller,C,28.5,213.36,250,-1,53,0.7,1.2,0.722,4.6,0.578,0.4,0.357,1.7,60,3,29,0.7,75,59,0.2,0.5,80,,,,
players,Paul,Zipser,SF,24.4,203.2,210,-1,49,0.8,0.5,0.731,2.3,0.355,2,0.336,0.2,50,2.2,32,0.9,75,62,0.4,0.3,66,,,,
,,,,,,,,,,,,,,,,,,,,,,,,,,,,,
// Rookies,,,,,,,,,,,,,,,,,,,,,,,,,,,,,
,,,,,,,,,,,,,,,,,,,,,,,,,,,,,
Rookies,Zion,Williamson,PF,18,6'06,280,-3,,3,5.9,0.6,11,0.687,2.1,0.297,3.2,,6.8,,3.2,75,,1.6,1.1,,USA,North Carolina,Duke,","
Rookies,R.J.,Barrett,SG,18,6'06,210,-3,,3.5,5.1,0.63,10.5,0.501,5.7,0.31,1.1,,5.5,,4.5,75,,0.85,0.3,,USA,North Carolina,Duke,","
Rookies,Ja,Morant,PG,19,6'03,175,-3,,5,7.7,0.781,10.7,0.475,4.6,0.35,0.9,,4.1,,8.7,75,,1.6,0.6,,USA,Kentukcy,Murray State,","
Rookies,Darius,Garland,PG,19,6'02,175,-3,,3.7,3.2,0.725,6.2,0.537,4.6,0.421,0.2,,3.1,,3.1,75,,0.7,0.1,,USA,Tennessee,Vanderbilt,","
Rookies,Cam,Reddish,SG,19,6'07,215,-3,,3.5,3.5,0.75,6.4,0.427,7,0.36,0.8,,3.2,,3,75,,1.25,0.4,,USA,North Carolina,Duke,","
Rookies,Jarrett,Culver,SG,20,6'06,195,-3,,3,5.1,0.698,10,0.486,3.9,0.3,1.2,,4.8,,4,75,,1.25,0.4,,USA,Texas,Texas Tech,","
Rookies,Coby,White,PG,19,6'05,185,-3,,4.2,4.2,0.785,6.2,0.472,7,0.346,0.45,,4,,5.3,75,,1,0.45,,USA,North Carolina,North Carolina,","
Rookies,De'Andre,Hunter,SF,21,6'07,225,-3,,2.1,4,0.765,7.2,0.525,4,0.338,2,,4.5,,3.1,75,,0.75,0.75,,USA,Virginia,Virginia,","
Rookies,Sekou,Doumbouya,SF,18,6'09,230,-3,,,,,,,,,,,,,,75,,,,,France,,Poitiers,","
Rookies,Romeo,Langford,SG,19,6'06,210,-3,,,,,,,,,,,,,,75,,,,,USA,Indiana,Indiana,","
Rookies,Nassir,Little,SF,19,6'06,220,-3,,,,,,,,,,,,,,75,,,,,USA,North Carolina,North Carolina,","
Rookies,K.Z.,Okpala,SG,19,6'08,195,-3,,,,,,,,,,,,,,75,,,,,USA,California,Stanford,","
Rookies,Nickeil,Alexander-Walker,SG,20,6'05,205,-3,,,,,,,,,,,,,,75,,,,,USA,Virginia,Virginia Tech,","
Rookies,Keldon,Johnson,SG,19,6'06,215,-3,,,,,,,,,,,,,,75,,,,,USA,Kentucky,Kentucky,","
Rookies,Rui,Hachimura,PF,21,6'08,235,-3,,,,,,,,,,,,,,75,,,,,USA,Washington,Gonzaga,","
Rookies,Ty,Jerome,PG,21,6'05,200,-3,,,,,,,,,,,,,,75,,,,,USA,Virginia,Virginia,","
Rookies,P.J.,Washington,PF,20,6'08,235,-3,,,,,,,,,,,,,,75,,,,,USA,Kentucky,Kentucky,","
Rookies,Jaxson,Hayes,C,18,6'11,220,-3,,,,,,,,,,,,,,75,,,,,USA,Texas,Texas,","
Rookies,Charles,Bassey,C,18,6'10,245,-3,,,,,,,,,,,,,,75,,,,,USA,Kentucky,Western Kentucky,","
Rookies,Bol,Bol,C,19,7'02,235,-3,,,,,,,,,,,,,,75,,,,,USA,Oregon,Oregon,","
Rookies,Daniel,Gafford,PF,20,6'10,230,-3,,,,,,,,,,,,,,75,,,,,USA,Arkansas,Arkansas,","
Rookies,Kevin,Porter,SG,18,6'05,220,-3,,,,,,,,,,,,,,75,,,,,USA,California,USC,","
Rookies,Carsen,Edwards,PG,21,6'00,200,-3,,,,,,,,,,,,,,75,,,,,USA,Indiana,Purdue,","
Rookies,Bruno,Fernando,C,20,6'10,245,-3,,,,,,,,,,,,,,75,,,,,USA,Maryland,Maryland,","
Rookies,Goga,Bitadze,C,19,6'11,250,-3,,,,,,,,,,,,,,75,,,,,Georgia,,Misko Raznatovic,","
Rookies,Matisse,Thybulle,SG,22,6'06,200,-3,,,,,,,,,,,,,,75,,,,,USA,Washington,Washington,","
Rookies,Cameron,Johnson,SF,23,6'08,210,-3,,,,,,,,,,,,,,75,,,,,USA,North Carolina,North Carolina,","
Rookies,Tyler,Herro,SG,19,6'05,195,-3,,,,,,,,,,,,,,75,,,,,USA,Kentucky,Kentucky,","
Rookies,Talen,Horton-Tucker,SF,18,6'04,240,-3,,,,,,,,,,,,,,75,,,,,USA,Iowa,Iowa State,","
Rookies,Naz,Reid,C,19,6'10,250,-3,,,,,,,,,,,,,,75,,,,,USA,Louisiana,LSU,","
Rookies,Jaylen,Norwell,SG,19,6'04,200,-3,,,,,,,,,,,,,,75,,,,,USA,Washington,Washington,","
Rookies,Brandon,Clarke,C,22,6'08,215,-3,,,,,,,,,,,,,,75,,,,,USA,Washington,Gonzaga,","
Rookies,Admiral,Schofield,SF,22,6'05,240,-3,,,,,,,,,,,,,,75,,,,,USA,Tennessee,Tennessee,","
Rookies,Louis,King,SF,20,6'08,205,-3,,,,,,,,,,,,,,75,,,,,USA,Oregon,Oregon,","
Rookies,Luguentz,Dort,SG,19,6'04,220,-3,,,,,,,,,,,,,,75,,,,,USA,Arizona,Arizona State,","
Rookies,Grant,Williams,PF,20,6'07,240,-3,,,,,,,,,,,,,,75,,,,,USA,Tennessee,Tennessee,","
Rookies,Jalen,McDaniels,PF,21,6'10,195,-3,,,,,,,,,,,,,,75,,,,,USA,California,San Diego State,","
Rookies,Sagaba,Konate,C,22,6'08,250,-3,,,,,,,,,,,,,,75,,,,,USA,West Virginia,West Virginia,","
Rookies,Kris,Wilkes,SF,20,6'08,215,-3,,,,,,,,,,,,,,75,,,,,USA,California,UCLA,","
Rookies,Eric,Paschall,SF,22,6'07,260,-3,,,,,,,,,,,,,,75,,,,,USA,Pennsylvania,Villanova,","
Rookies,Darius,Bazley,PF,18,6'09,200,-3,,,,,,,,,,,,,,75,,,,,USA,,G-League,","
Rookies,Amir,Hinton,SG,22,6'05,190,-3,,,,,,,,,,,,,,75,,,,,USA,North Carolina,Shaw,","
Rookies,Ayo,Dosunmu,PG,19,6'04,185,-3,,,,,,,,,,,,,,75,,,,,USA,Illinois,Illinois,","
Rookies,Chuma,Okeke,SF,20,6'08,235,-3,,,,,,,,,,,,,,75,,,,,USA,Alabama,Auburn,","
Rookies,Tyler,Bey,PF,21,6'07,215,-3,,,,,,,,,,,,,,75,,,,,USA,Colorado,Colorado,","
Rookies,Luka,Samanic,PF,19,6'10,210,-3,,,,,,,,,,,,,,75,,,,,Spain,,Barcelona 2,","
Rookies,Jontay,Porter,C,19,6'11,240,-3,,,,,,,,,,,,,,75,,,,,USA,Missouri,Missouri,","
Rookies,Brian,Bowen,SF,20,6'07,200,-3,,,,,,,,,,,,,,75,,,,,USA,Kentucky,Louisville,","
Rookies,Ky,Bowman,PG,20,6'01,190,-3,,,,,,,,,,,,,,75,,,,,USA,Massachusetts,Boston College,","
Rookies,Johsua,Obiesie,PG,18,6'06,195,-3,,,,,,,,,,,,,,75,,,,,Germany,,S.Oliver Wurzburg,","
Rookies,Shamorie,Ponds,PG,20,6'01,175,-3,,,,,,,,,,,,,,75,,,,,USA,New York,St. John's,","
Rookies,Vanja,Marinkovic,SG,22,6'07,195,-3,,,,,,,,,,,,,,75,,,,,Serbia,,KK Partizan,","
Rookies,Yovel,Zoosman,SG,20,6'07,198,-3,,,,,,,,,,,,,,75,,,,,Israel,,Maccabi Tel Aviv,","
Rookies,Nikita,Mikhailovskii,SG,18,6'06,189,-3,,,,,,,,,,,,,,75,,,,,Russia,,Avtodor Saratov,","
Rookies,Henri,Drell,SG,18,6'08,187,-3,,,,,,,,,,,,,,75,,,,,Estonia,,Baunach Young Pikes,","
Rookies,Kyle,Guy,PG,21,6'02,175,-3,,,,,,,,,,,,,,75,,,,,USA,Virginia,Virginia,","
Rookies,D'Marcus,Simonds,SG,21,6'03,195,-3,,,,,,,,,,,,,,75,,,,,USA,Georgia,Georgia State,","
Rookies,Marcos,Louzada Silva,SG,19,6'05,190,-3,,,,,,,,,,,,,,75,,,,,Brazil,,Franca,","
Rookies,Tacko,Fall,C,23,7'06,295,-3,,,,,,,,,,,,,,75,,,,,USA,Florida,UCF,","
Rookies,Jordan,Nwora,SF,20,6'07,225,-3,,,,,,,,,,,,,,75,,,,,USA,Kentucky,Louisville,","
Rookies,Ashton,Hagans,PG,19,6'03,190,-3,,,,,,,,,,,,,,75,,,,,USA,Kentucky,Kentucky,","
Rookies,Ignas,Brazdeikis,SF,20,6'07,225,-3,,,,,,,,,,,,,,75,,,,,USA,Michigan,Michigan,","
Rookies,Aric,Holman,PF,21,6'10,225,-3,,,,,,,,,,,,,,75,,,,,USA,Mississippi,Mississippi State,","
Rookies,Jalen,Smith,PF,19,6'10,195,-3,,,,,,,,,,,,,,75,,,,,USA,Maryland,Maryland,","
Rookies,Dylan,Windler,SG,22,6'07,200,-3,,,,,,,,,,,,,,75,,,,,USA,Tennessee,Belmont,","
Rookies,Robert,Franks,SF,22,6'08,230,-3,,,,,,,,,,,,,,75,,,,,USA,Washington,Washington State,.
Rookies,Austin,Wiley,C,20,6'10,260,-3,,,,,,,,,,,,,,75,,,,,USA,Alabama,Auburn,","
Rookies,Jaylen,Hoard,SF,20,6'08,220,-3,,,,,,,,,,,,,,75,,,,,USA,North Carolina,Wake Forest,","
Rookies,Simi,Shittu,PF,19,6'10,240,-3,,,,,,,,,,,,,,75,,,,,USA,Tennessee,Vanderbilt,","
Rookies,Udoka,Azubuike,C,19,6'11,280,-3,,,,,,,,,,,,,,75,,,,,USA,Kansas,Kansas,","
Rookies,Oshae,Brissett,SF,20,6'08,210,-3,,,,,,,,,,,,,,75,,,,,USA,New York,Syracuse,","
Rookies,Nicolas,Claxton,PF,20,6'11,220,-3,,,,,,,,,,,,,,75,,,,,USA,Georgia,Georgia,","
,,,,,,,,,,,,,,,,,,,,,,,,,,,,,
// Coaches,,,,,,,,,,,,,,,,,,,,,,,,,,,,,
,,,,,,,,,,,,,,,,,,,,,,,,,,,,,
,Team ID,First,Last,Age,Position,Authority,Expectation,Personality,ShotSelection,BallMovement,Rebounding,Defence,Structure,DevShot,DevBallMovement,DevRebounding,DevDefence,DevFitness,FindTalent,FindPotential,Persuasion,Dedication,Desire,Potential,,,,,
Coaches,0,Lloyd,Pierce,42,HC,55,70,60,48,81,74,62,56,74,77,69,78,70,52,60,71,80,8,73,,,,,
Coaches,1,Brad,Stevens,41,HC,90,75,75,77,81,74,84,82,62,76,75,64,57,43,85,78,87,90,90,,,,,
Coaches,2,Kenny,Atkinson,51,HC,45,38,72,54,77,75,75,50,53,85,54,66,50,45,67,63,76,89,86,,,,,
Coaches,3,James,Borrego,40,HC,65,65,60,59,75,74,66,69,53,56,58,64,58,49,52,69,68,41,60,,,,,
Coaches,4,Jim,Boylen,53,HC,60,56,65,49,72,72,63,74,50,75,61,75,51,40,32,75,95,38,59,,,,,
Coaches,5,John,Beilein,66,HC,65,80,55,68,69,75,49,75,53,73,56,63,67,53,59,58,89,38,70,,,,,
Coaches,6,Rick,Carlisle,58,HC,68,50,75,50,78,75,72,96,70,60,65,70,60,30,35,80,85,99,72,,,,,
Coaches,7,Michael,Malone,47,HC,65,62,75,79,85,79,81,65,50,65,40,80,75,77,70,80,70,32,82,,,,,
Coaches,8,Dwane,Casey,61,HC,76,74,75,74,75,76,77,88,68,66,64,80,59,32,22,81,78,32,65,,,,,
Coaches,9,Steve,Kerr,52,HC,87,98,81,88,87,76,78,67,94,91,54,66,79,80,68,75,79,88,88,,,,,
Coaches,10,Mike,D'Antoni,67,HC,80,79,65,72,70,72,72,64,63,73,54,36,85,61,65,76,88,47,62,,,,,
Coaches,11,Nate,McMillan,53,HC,67,59,70,75,82,75,89,77,54,75,58,80,58,51,52,74,82,37,60,,,,,
Coaches,12,Doc,Rivers,56,HC,85,74,85,85,75,75,72,85,65,69,73,74,56,44,51,82,90,86,66,,,,,
Coaches,13,Frank,Vogel,45,HC,54,38,75,50,71,78,54,82,67,69,79,84,65,36,51,86,80,100,73,,,,,
Coaches,14,Taylor,Jenkins,35,HC,72,64,80,72,82,72,81,61,75,54,80,80,50,39,40,80,85,15,60,,,,,
Coaches,15,Erik,Spoelstra,47,HC,81,64,80,65,80,77,83,81,62,64,60,71,74,34,79,85,79,35,78,,,,,
Coaches,16,Mike,Budenholzer,48,HC,68,57,76,61,78,77,92,57,60,68,55,62,41,23,34,67,100,84,82,,,,,
Coaches,17,Ryan,Saunders,32,HC,70,69,70,58,77,75,66,67,73,80,57,64,67,58,67,65,78,69,69,,,,,
Coaches,18,Alvin,Gentry,63,HC,59,53,85,60,81,76,66,86,73,72,67,79,65,48,43,87,83,77,76,,,,,
Coaches,19,Mike,Miller,55,HC,48,62,65,45,68,73,62,86,63,73,54,36,85,61,65,76,88,47,51,,,,,
Coaches,20,Billy,Donovan,53,HC,72,63,75,62,71,76,87,65,77,73,67,72,58,32,34,76,90,54,67,,,,,
Coaches,21,Steve,Clifford,56,HC,61,61,72,52,82,75,82,100,53,61,80,85,49,55,54,73,80,12,71,,,,,
Coaches,22,Brett,Brown,57,HC,59,41,75,51,85,78,77,48,75,73,66,79,49,66,36,85,95,53,76,,,,,
Coaches,23,Monty,Williams,47,HC,55,70,60,48,76,75,69,56,74,77,69,78,70,52,60,71,80,8,53,,,,,
Coaches,24,Terry,Stotts,60,HC,66,58,80,69,71,79,75,78,75,73,65,62,52,32,36,73,80,58,70,,,,,
Coaches,25,Luke,Walton,38,HC,51,37,75,60,78,75,77,63,68,66,64,80,59,32,22,81,78,32,65,,,,,
Coaches,26,Gregg,Popovich,69,HC,92,84,41,79,75,75,70,96,70,57,63,66,36,63,30,89,94,87,45,,,,,
Coaches,27,Nick,Nurse,50,HC,70,64,70,51,78,75,84,89,67,60,53,51,80,74,80,56,72,70,60,,,,,
Coaches,28,Quin,Snyder,51,HC,76,73,70,90,84,78,92,79,67,69,76,81,74,67,50,74,83,99,70,,,,,
Coaches,29,Scott,Brooks,52,HC,74,66,75,85,81,71,63,73,73,66,62,59,67,53,39,74,77,43,86,,,,,
Coaches,0,Greg,Foster,49,AC,55,71,65,56,73,72,54,55,62,51,60,61,90,63,59,68,79,12,75,,,,,
Coaches,1,Jay,Larranaga,43,AC,60,68,70,57,73,72,76,60,60,51,66,77,69,66,62,67,68,4,70,,,,,
Coaches,2,Jacque,Vaughn,43,AC,65,60,70,67,68,73,67,60,67,62,60,63,52,59,57,68,73,64,60,,,,,
Coaches,3,Jay,Triano,59,AC,42,42,65,64,66,72,58,61,62,61,53,58,57,72,69,71,80,47,56,,,,,
Coaches,4,Chris,Fleming,49,AC,55,70,55,52,63,70,55,63,62,62,60,66,98,61,60,64,63,74,90,,,,,
Coaches,5,J.B.,Bickerstaff,40,AC,80,71,70,80,61,72,41,78,58,61,52,74,71,68,67,68,73,32,77,,,,,
Coaches,6,Darrell,Armstrong,50,AC,55,57,65,59,69,73,64,55,52,71,46,55,76,79,53,59,58,53,65,,,,,
Coaches,7,Ryan,Bowen,42,AC,55,57,65,59,77,76,73,55,52,71,46,55,76,79,53,59,58,53,65,,,,,
Coaches,8,Sidney,Lowe,59,AC,70,52,80,79,67,74,69,53,81,90,57,67,81,53,67,67,79,48,75,,,,,
Coaches,9,Mike,Brown,48,AC,77,70,65,57,78,73,70,62,67,69,80,82,73,66,66,76,73,75,72,,,,,
Coaches,10,Elston,Turner,59,AC,60,73,70,65,68,71,64,59,80,59,73,68,59,59,69,63,73,83,80,,,,,
Coaches,11,Popeye,Jones,48,AC,55,64,70,51,73,73,81,89,67,60,53,51,80,74,80,56,72,70,60,,,,,
Coaches,12,Sam,Cassell,48,AC,70,68,75,70,67,73,64,59,70,74,51,62,54,50,54,65,65,58,80,,,,,
Coaches,13,Jason,Kidd,45,AC,84,59,92,84,92,65,66,81,73,91,54,66,50,45,67,63,76,89,84,,,,,
Coaches,14,Niele,Ivey,42,AC,45,65,50,67,69,65,68,45,66,67,47,49,63,56,53,48,58,30,50,,,,,
Coaches,15,Dan,Craig,37,AC,65,61,70,53,71,74,75,58,62,67,65,68,73,63,67,75,84,28,80,,,,,
Coaches,16,Darvin,Ham,44,AC,60,64,80,54,70,75,84,54,58,78,52,66,70,72,70,69,79,25,77,,,,,
Coaches,17,Pablo,Prigioni,42,AC,69,60,72,36,68,73,58,77,62,47,79,49,50,68,61,51,43,49,67,,,,,
Coaches,18,Jeff,Bzdelik,65,AC,80,70,55,72,62,70,64,50,71,72,52,54,68,61,58,53,63,35,55,,,,,
Coaches,19,Keith,Smart,54,AC,60,55,65,54,59,71,54,54,64,52,72,71,68,62,68,62,79,73,64,,,,,
Coaches,20,Maurice,Cheeks,61,AC,60,70,75,54,62,74,79,59,77,83,48,69,71,65,62,69,78,67,88,,,,,
Coaches,21,Tyrone,Corbin,55,AC,75,72,65,53,74,73,74,60,59,63,73,72,69,74,69,62,67,39,68,,,,,
Coaches,22,Kevin,Young,37,AC,62,59,75,51,49,73,72,53,63,59,71,73,63,72,68,58,74,97,72,,,,,
Coaches,23,Willie,Green,38,AC,55,50,60,57,69,67,51,64,63,59,62,67,66,53,59,74,80,50,80,,,,,
Coaches,24,Nate,Tibbetts,40,AC,62,65,65,65,63,76,67,65,65,65,65,65,65,65,65,65,65,65,65,,,,,
Coaches,25,Igor,Kokoskov,46,AC,65,38,65,42,77,70,59,48,53,50,49,50,52,75,72,66,67,37,95,,,,,
Coaches,26,Tim,Duncan,43,AC,67,65,60,59,67,73,62,69,53,56,58,64,58,49,52,69,68,47,70,,,,,
Coaches,27,Adrian,Griffin,44,AC,55,64,70,51,70,73,76,89,67,60,53,51,80,74,80,56,72,70,60,,,,,
Coaches,28,Alex,Jensen,42,AC,65,38,65,42,75,76,84,48,53,50,49,50,52,75,72,66,67,37,95,,,,,
Coaches,29,Robert,Pack,49,AC,70,68,75,70,72,69,55,59,70,74,51,62,54,50,54,65,65,58,80,,,,,
Coaches,-1,David,Fizdale,44,NA,68,62,65,45,68,73,62,86,63,73,54,36,85,61,65,76,88,47,61,,,,,
Coaches,-1,Stan,Van Gundy,58,NA,73,56,70,59,68,65,52,96,53,85,60,80,48,46,70,65,75,98,60,,,,,
Coaches,-1,Jeff,Hornacek,55,NA,56,48,65,57,70,65,54,76,63,73,54,36,85,61,65,76,88,47,64,,,,,
Coaches,-1,Earl,Watson,39,NA,57,57,80,78,71,65,66,56,81,77,69,70,54,43,29,89,80,25,73,,,,,
Coaches,-1,Scott,Skiles,54,NA,62,33,70,61,65,67,71,65,71,68,65,68,50,47,27,68,75,4,70,,,,,
Coaches,-1,Brian,Shaw,52,NA,80,70,55,72,69,73,69,50,71,72,52,54,68,61,58,53,63,35,55,,,,,
Coaches,-1,Kurt,Rambis,60,NA,62,60,75,58,68,73,68,63,57,61,77,72,69,74,69,67,84,44,70,,,,,
Coaches,-1,Phil,Jackson,72,NA,80,81,95,93,95,83,97,88,61,70,65,82,57,53,54,92,88,27,60,,,,,
Coaches,-1,Jerry,Sloan,76,NA,80,70,75,82,85,85,86,96,65,62,63,65,62,63,64,84,85,86,60,,,,,
Coaches,-1,Doug,Collins,66,NA,70,71,75,70,70,75,70,75,65,67,68,69,73,57,57,86,83,10,60,,,,,
Coaches,-1,Byron,Scott,57,NA,75,82,75,73,69,64,68,73,67,68,61,70,68,64,64,71,75,81,70,,,,,
Coaches,-1,George,Karl,67,NA,70,56,85,82,81,64,61,69,51,70,63,56,68,50,42,79,85,44,60,,,,,
Coaches,-1,Jeff,Van Gundy,56,NA,70,70,70,65,65,68,73,58,61,61,60,64,62,63,62,67,67,37,65,,,,,
Coaches,-1,Michale,Kennison,55,NA,43,47,43,50,61,18,77,44,14,19,73,75,90,64,78,36,70,56,68,,,,,
Coaches,-1,Chris,Finch,48,NA,60,70,75,54,72,74,58,59,77,83,48,69,71,65,62,69,78,67,88,,,,,
Coaches,-1,Sammie,Peters,66,NA,29,64,43,62,28,48,44,68,77,34,78,40,29,51,18,66,83,37,76,,,,,
Coaches,-1,Lucien,Casabloy,62,NA,41,50,40,59,75,32,18,43,43,50,53,12,67,30,17,90,40,76,12,,,,,
Coaches,-1,Darren,Brannum,55,NA,21,47,60,55,20,73,64,20,46,67,42,85,10,38,22,60,39,79,61,,,,,
Coaches,-1,Keenan,Coulter,63,NA,60,41,34,63,61,21,34,47,12,77,21,56,56,56,33,78,34,36,43,,,,,
Coaches,-1,Jared,Coots,59,NA,61,55,64,78,16,72,35,61,26,90,84,34,54,25,24,89,10,19,76,,,,,
Coaches,-1,Sean,Braddy,48,NA,61,50,42,53,32,83,62,88,36,68,67,89,32,30,30,17,38,92,67,,,,,
Coaches,-1,Lucien,Rosenfeld,33,NA,70,38,72,44,55,45,51,52,51,30,34,32,51,70,32,53,25,2,17,,,,,
Coaches,-1,Felix,Rocants,30,NA,49,65,40,47,34,89,31,80,40,71,34,72,55,67,86,42,48,14,89,,,,,
Coaches,-1,Tai,Navarette,33,NA,34,42,80,76,39,17,24,65,18,16,35,34,27,34,53,70,32,75,88,,,,,
Coaches,-1,Neil,Fleischmann,61,NA,88,46,18,22,81,44,10,65,11,32,25,76,34,50,90,29,27,18,45,,,,,
Coaches,-1,Deandre,Maclin,43,NA,89,37,45,48,18,60,17,25,57,12,50,63,39,30,42,37,66,45,84,,,,,
Coaches,-1,Jonathan,Edmiston,45,NA,23,55,24,80,86,83,13,32,67,30,18,42,58,58,81,12,85,51,39,,,,,
Coaches,-1,Mose,Jock,39,NA,23,56,25,69,89,66,38,58,13,72,24,50,50,19,19,13,42,57,83,,,,,
Coaches,-1,David,Joerger,44,NA,57,47,70,71,77,73,72,69,64,62,75,82,72,34,46,76,74,29,73,,,,,
Coaches,-1,Irwin,Alvares,30,NA,74,54,61,39,22,26,64,86,74,83,46,70,72,17,53,41,74,14,87,,,,,
Coaches,-1,Andrew,Markert,61,NA,65,52,15,25,29,74,80,75,45,12,39,24,14,34,33,70,56,20,30,,,,,
Coaches,-1,Edwin,Clemens,53,NA,44,60,17,72,83,47,75,77,27,21,90,37,83,54,44,43,46,100,86,,,,,
Coaches,-1,Tobias,Whiang,44,NA,49,64,40,57,70,56,70,75,52,19,24,42,28,89,29,47,43,98,82,,,,,
Coaches,-1,Jose,Corn,53,NA,63,53,52,50,83,66,57,50,38,18,13,41,41,20,56,60,54,5,82,,,,,
Coaches,-1,Andrew,Therrien,43,NA,72,40,66,74,25,30,25,81,58,15,15,16,42,79,51,19,74,24,63,,,,,
Coaches,-1,Otto,Alberto,40,NA,88,74,19,43,81,78,25,78,54,46,75,52,90,41,17,75,38,96,34,,,,,
Coaches,-1,Edison,Southworth,67,NA,90,58,17,80,15,73,51,29,33,60,44,50,59,55,60,78,51,78,79,,,,,
Coaches,-1,Robin,Derrico,55,NA,14,44,73,39,55,81,53,22,59,14,79,73,44,71,68,23,58,26,16,,,,,
Coaches,-1,Mathew,Sistrunk,41,NA,21,57,54,76,55,29,87,20,81,73,61,14,11,74,28,61,86,41,24,,,,,
Coaches,-1,Chris,Michel,41,NA,16,46,66,24,44,24,48,49,10,38,40,25,81,83,75,51,67,2,84,,,,,
Coaches,-1,Lynn,Turberville,66,NA,64,54,75,22,25,90,39,15,88,73,76,55,83,52,48,74,47,22,51,,,,,
Coaches,-1,Jordan,Range,37,NA,47,46,45,56,83,24,61,15,44,87,36,73,82,81,69,13,49,88,59,,,,,
Coaches,-1,Michale,Giglio,35,NA,81,64,38,77,86,65,63,42,54,88,33,40,76,88,87,69,44,36,58,,,,,
Coaches,-1,Robbie,Selleck,56,NA,13,50,65,22,90,81,25,48,82,78,21,21,79,79,51,61,76,68,29,,,,,
Coaches,-1,Israel,Dressler,66,NA,73,61,36,22,50,42,55,90,50,68,21,55,42,34,77,89,69,100,26,,,,,
Coaches,-1,Herb,Guice,31,NA,54,48,88,25,36,67,64,32,32,61,68,23,81,18,77,84,12,45,68,,,,,
Coaches,-1,Esteban,Rencher,42,NA,60,58,26,86,55,63,45,48,80,84,11,51,12,59,35,42,35,56,34,,,,,
Coaches,-1,Mehmet,Schreier,53,NA,16,45,27,41,21,47,48,46,28,62,32,87,35,48,88,40,25,99,30,,,,,
Coaches,-1,Billie,Brokaw,51,NA,75,59,10,19,13,87,20,64,38,11,65,63,54,48,49,82,27,67,79,,,,,
Coaches,-1,Donny,Denis,64,NA,81,41,18,46,13,10,59,15,27,88,68,52,39,34,90,23,52,58,29,,,,,
Coaches,-1,Gene,Jewell,62,NA,24,49,70,45,37,60,32,19,38,78,44,16,35,40,21,71,75,5,52,,,,,
Coaches,-1,Everett,Grosso,48,NA,15,57,89,90,17,81,42,54,15,80,16,59,26,40,35,45,19,31,67,,,,,
Coaches,-1,Caleb,Eastwood,37,NA,29,47,78,46,43,16,13,82,63,26,28,65,65,40,21,33,49,91,34,,,,,
